company,href,id,name,city,country,latitude,longitude,ebikes
['ЗАО «СитиБайк»'],/v2/networks/velobike-moscow,velobike-moscow,Velobike,Moscow,RU,55.75,37.616667,False
['Urban Infrastructure Partner'],/v2/networks/baerum-bysykkel,baerum-bysykkel,Bysykkel,Bærum,NO,59.89455,10.546343,False
['Comunicare S.r.l.'],/v2/networks/bicincitta-siena,bicincitta-siena,Bicincittà,Siena,IT,43.3186,11.3306,False
['Cyclopolis Systems'],/v2/networks/cyclopolis-maroussi,cyclopolis-maroussi,Cyclopolis,Maroussi,GR,38.0568722388,23.8083299536,False
['Cyclopolis Systems'],/v2/networks/cyclopolis-nafplio,cyclopolis-nafplio,Cyclopolis,Nafplio,GR,37.5639397319,22.8093402872,False
['Comunicare S.r.l.'],/v2/networks/bicincitta-parco-dei-colli-di-bergamo,bicincitta-parco-dei-colli-di-bergamo,Bicincittà,Parco dei Colli di Bergamo,IT,45.72295637032245,9.649230073016383,False
['Cyclopolis Systems'],/v2/networks/cyclopolis-aigialeia,cyclopolis-aigialeia,Cyclopolis,Aigialeia,GR,38.2511101325,22.0821570196,False
['Cyclopolis Systems'],/v2/networks/cyclopolis-marathon,cyclopolis-marathon,Cyclopolis,Marathon,GR,38.0855680022,23.9776389963,False
['Comunicare S.r.l.'],/v2/networks/bicincitta-mantova,bicincitta-mantova,Bicincittà,Mantova,IT,45.15866370764634,10.783718973016335,False
['Cyclopolis Systems'],/v2/networks/cyclopolis-neasmyrni,cyclopolis-neasmyrni,Cyclopolis,Νea Smyrni,GR,37.9381,23.7126,False
['Cyclopolis Systems'],/v2/networks/cyclopolis-moschatotavros,cyclopolis-moschatotavros,Cyclopolis,Μoschato-Tavros,GR,37.9538991434,23.6824746661,False
['Cyclopolis Systems'],/v2/networks/cyclopolis-arxaiaolympia,cyclopolis-arxaiaolympia,Cyclopolis,Αrxaia Olympia,GR,37.6419700934,21.6247265179,False
['Cyclopolis Systems'],/v2/networks/cyclopolis-kiato,cyclopolis-kiato,Cyclopolis,Kιato,GR,38.0132674508,22.7493819902,False
['Comunicare S.r.l.'],/v2/networks/bicincitta-assemini,bicincitta-assemini,Bicincittà,Assemini,IT,39.28956306007679,9.006601555294765,False
['Cyclopolis Systems'],/v2/networks/cyclopolis-rhodes,cyclopolis-rhodes,Cyclopolis,Rhodes,GR,36.4509118,28.2246966,False
['Cyclopolis Systems'],/v2/networks/cyclopolis-florina,cyclopolis-florina,Cyclopolis,Florina,GR,40.8016111,21.4245222,False
['Comunicare S.r.l.'],/v2/networks/bicincitta-tortoli,bicincitta-tortoli,Bicincittà,Tortolì,IT,39.92664489852196,9.654953570777934,False
['Cyclopolis Systems'],/v2/networks/cyclopolis-limnos,cyclopolis-limnos,Cyclopolis,Limnos,GR,39.8747861,25.0586722,False
['Comunicare S.r.l.'],/v2/networks/bicincitta-gaeta,bicincitta-gaeta,Bicincittà,Gaeta,IT,41.209620965538036,13.584335125656139,False
['Comunicare S.r.l.'],/v2/networks/bicincitta-borgarello,bicincitta-borgarello,Bicincittà,Borgarello,IT,45.23963753440171,9.136150475640875,False
['Comunicare S.r.l.'],/v2/networks/bicincitta-pizzighettone-formigara,bicincitta-pizzighettone-formigara,Bicincittà,Pizzighettone e Formigara,IT,45.186748819167434,9.778087948479424,False
['The National Transport Authority'],/v2/networks/cork,cork,TFI Bikes,Cork,IE,51.893604,-8.494174,False
['The National Transport Authority'],/v2/networks/limerick,limerick,TFI Bikes,Limerick,IE,52.668746,-8.627809,False
['BTS Group Holdings'],/v2/networks/punpunbikeshare,punpunbikeshare,Pun Pun Bike Share,Bangkok,TH,13.75,100.516667,False
['The National Transport Authority'],/v2/networks/galway,galway,TFI Bikes,Galway,IE,53.2783491544,-9.05069143207,False
['Comunicare S.r.l.'],/v2/networks/bicincitta-montecatini-terme,bicincitta-montecatini-terme,Bicincittà,Montecatini Terme,IT,43.88362791665083,10.764385656591799,False
['Bike U Sp. z o.o.'],/v2/networks/bikeu-bra,bikeu-bra,Bydgoski rower aglomeracyjny,Bydgoszcz,PL,53.12193,18.00038,False
"['PBSC', 'Serco Group plc']",/v2/networks/santander-cycles,santander-cycles,Santander Cycles,London,GB,51.51121389999999,-0.1198244,False
"['PBSC', 'Alta Bicycle Share, Inc']",/v2/networks/we-cycle,we-cycle,WE-cycle,"Aspen, CO",US,39.194951,-106.837002,False
['Comunicare S.r.l.'],/v2/networks/bicincitta-carrara,bicincitta-carrara,Bicincittà,Carrara,IT,44.07731805550891,10.097172450401331,False
['Transparenzportal Hamburg'],/v2/networks/stadtrad-hamburg,stadtrad-hamburg,StadtRAD Hamburg',Hamburg,DE,53.57532,10.01534,False
['Comunicare S.r.l.'],/v2/networks/tigullionbike,tigullionbike,Tigullionbike,Sestri Levante - Lavagna,IT,44.272554,9.395714,False
['Comunicare S.r.l.'],/v2/networks/arbike,arbike,ARbike,Arezzo,IT,43.473333,11.87,False
"['Velobike.kz, LLP', 'Smoove']",/v2/networks/velobike,velobike,Velobike,Astana,KZ,51.166667,71.416667,False
,/v2/networks/velib,velib,Vélib' Métropole,Paris,FR,48.856614,2.3522219,True
['Comunicare S.r.l.'],/v2/networks/ascoli-piceno,ascoli-piceno,Ascoli Piceno,Ascoli Piceno,IT,42.85,13.583333,False
['Comunicare S.r.l.'],/v2/networks/bigi,bigi,BiGi,Bergamo,IT,45.695,9.67,False
['ICNITA S.L.'],/v2/networks/girocleta,girocleta,Girocleta,Girona,ES,41.9794005,2.8214264,False
['Comunicare S.r.l.'],/v2/networks/alba,alba,Alba,Alba,IT,44.716667,8.083333,False
['ClearChannel'],/v2/networks/bikemi,bikemi,BikeMi,Milano,IT,45.4654542,9.186516,True
['Comunicare S.r.l.'],/v2/networks/biella,biella,Biella,Biella,IT,45.5775,8.051111,False
['Comunicare S.r.l.'],/v2/networks/chivasso,chivasso,Chivasso,Chivasso,IT,45.189765,7.888935,False
['ClearChannel'],/v2/networks/bizi,bizi,Bizi,Zaragoza,ES,41.6487908,-0.8895811,False
,/v2/networks/ecobici,ecobici,EcoBici,Cd de México,MX,19.4326077,-99.133208,False
['Comunicare S.r.l.'],/v2/networks/bici-in-busto,bici-in-busto,Bici in Busto,Busto Arsizio,IT,45.610555,8.852062,False
['ClearChannel'],/v2/networks/velo-antwerpen,velo-antwerpen,Velo Antwerpen,Antwerpen,BE,51.216667,4.4,False
['Comunicare S.r.l.'],/v2/networks/cuneo,cuneo,Cuneo,Cuneo,IT,44.384238,7.541428,False
['ClearChannel'],/v2/networks/malmobybike,malmobybike,Malmö by bike,Malmö,SE,55.605,13.0038,False
"Empresa Municipal de Transportes de Madrid, S.A.",/v2/networks/bicimad,bicimad,BiciMAD,Madrid,ES,40.4168,-3.7038,False
"['Brainbox Technology', 'Smoove SAS']",/v2/networks/easybike-didymoteicho,easybike-didymoteicho,EasyBike,Didymoteicho,GR,41.3502539849,26.4972960949,False
['Comunicare S.r.l.'],/v2/networks/free-bike-sharing,free-bike-sharing,FRee Bike sharing,Frosinone,IT,41.645081,13.342123,False
"['Brainbox Technology', 'Smoove SAS']",/v2/networks/easybike-glyfada,easybike-glyfada,EasyBike,Glyfada,GR,37.8715809825,23.7355544376,False
"['Brainbox Technology', 'Smoove SAS']",/v2/networks/easybike-igoumenitsa,easybike-igoumenitsa,EasyBike,Igoumenitsa,GR,39.5005770633,20.2635206985,False
['Comunicare S.r.l.'],/v2/networks/lecce,lecce,lecce,Lecce,IT,40.35040350928062,18.177824020385742,False
"['Brainbox Technology', 'Smoove SAS']",/v2/networks/easybike-ioannina,easybike-ioannina,EasyBike,Ioannina,GR,39.6639818,20.8522784,False
"['Brainbox Technology', 'Smoove SAS']",/v2/networks/easybike-karditsa,easybike-karditsa,EasyBike,Karditsa,GR,39.3634604,21.9211192,False
['Comunicare S.r.l.'],/v2/networks/manerba-in-bici,manerba-in-bici,Manerba in Bici,Manerba del Garda,IT,45.561179,10.559406,False
"['Brainbox Technology', 'Smoove SAS']",/v2/networks/easybike-kavala,easybike-kavala,EasyBike,Kavala,GR,40.9369068,24.4122164,False
"['Brainbox Technology', 'Smoove SAS']",/v2/networks/easybike-kinouria,easybike-kinouria,EasyBike,Kinouria,GR,37.1476704305,22.8933729935,False
"['Brainbox Technology', 'Smoove SAS']",/v2/networks/easybike-komotini,easybike-komotini,EasyBike,Komotini,GR,41.117833,25.4041307,False
"['Brainbox Technology', 'Smoove SAS']",/v2/networks/easybike-patra,easybike-patra,EasyBike,Patra,GR,38.2410966371,21.7259683418,False
['Comunicare S.r.l.'],/v2/networks/mar-e-bici,mar-e-bici,Mar e Bici,Marciana Marina,IT,42.805855,10.196514,False
"['Brainbox Technology', 'Smoove SAS']",/v2/networks/easybike-rethymno,easybike-rethymno,EasyBike,Rethymno,GR,35.3667571777,24.4832845736,False
"['Brainbox Technology', 'Smoove SAS']",/v2/networks/easybike-samos,easybike-samos,EasyBike,Samos,GR,37.754065919,26.9787850189,False
['Comunicare S.r.l.'],/v2/networks/novara,novara,Novara,Novara,IT,45.44574,8.622165,False
"['Brainbox Technology', 'Smoove SAS']",/v2/networks/easybike-nicosia,easybike-nicosia,EasyBike,Nicosia,CY,35.1739302,33.364726,False
"['Brainbox Technology', 'Smoove SAS']",/v2/networks/easybike-mani,easybike-mani,EasyBike,Mani,GR,41.4097472,26.4024952,False
"['Brainbox Technology', 'Smoove SAS']",/v2/networks/easybike-irakleio,easybike-irakleio,EasyBike,Irakleio,GR,35.338735,25.144213,False
"['Brainbox Technology', 'Smoove SAS']",/v2/networks/thessbike,thessbike,ThessBike,Thessaloniki,GR,40.6403167,22.9352716,False
"['Brainbox Technology', 'Smoove SAS']",/v2/networks/athens-bikes,athens-bikes,AthensBikes,Athens,GR,37.9838,23.7275,False
['Bicincitta Italia S.r.l.'],/v2/networks/goodbike,goodbike,GoodBike,Padova,IT,45.4064349,11.8767611,False
['PegBike'],/v2/networks/ciclosampa,ciclosampa,CicloSampa,São Paulo,BR,-23.55,-46.6333,False
,/v2/networks/bicicorunha,bicicorunha,Bicicoruña,A Coruña,ES,43.3623,-8.4115,False
['Tuimil S.A.'],/v2/networks/bici-ferrol-terra,bici-ferrol-terra,BiciFerrolTerra,Ferrol - Narón,ES,43.4896,-8.2193,False
['Comunicare S.r.l.'],/v2/networks/mimuovofe,mimuovofe,Mi Muovo in Bici,Ferrara,IT,44.8350382,11.6240562,False
"['Motivate International, Inc.', 'PBSC Urban Solutions', 'BIXI Montréal']",/v2/networks/bixi-montreal,bixi-montreal,Bixi,"Montréal, QC",CA,45.508693,-73.553928,True
['Comunicare S.r.l.'],/v2/networks/parma,parma,Mi Muovo in Bici,Parma,IT,44.801485,10.3279036,False
"['Motivate International, Inc.', 'PBSC Urban Solutions']",/v2/networks/bixi-toronto,bixi-toronto,Bike Share Toronto,"Toronto, ON",CA,43.653226,-79.3831843,False
['Social Bicycles Inc.'],/v2/networks/sobi-hamilton,sobi-hamilton,SoBi,"Hamilton, ON",CA,43.25643601915583,-79.86929655075073,False
['Comunicare S.r.l.'],/v2/networks/pavia-in-bici,pavia-in-bici,Pavia in bici,Pavia,IT,45.1847248,9.1582069,False
['Comunicare S.r.l.'],/v2/networks/bici-perugia,bici-perugia,Bici Perugia,Perugia,IT,43.1107168,12.3908279,False
"['BCycle, LLC']",/v2/networks/austin,austin,Austin B-cycle,"Austin, TX",US,30.26408,-97.74355,False
"['Motivate International, Inc', 'PBSC']",/v2/networks/bike-chattanooga,bike-chattanooga,Bike Chattanooga,"Chattanooga, TN",US,35.0456297,-85.3096801,True
['Comunicare S.r.l.'],/v2/networks/piacenza,piacenza,Mi Muovo in Bici,Piacenza,IT,45.0473754,9.6865813,False
['Comunicare S.r.l.'],/v2/networks/pinerolo,pinerolo,Pinerolo,Pinerolo,IT,44.8850256,7.3499953,False
"['Portland Bureau of Transportation (PBOT)', 'Lyft Inc.']",/v2/networks/biketown,biketown,BIKETOWN,"Portland, OR",US,45.52175423291714,-122.68107935786247,False
['Comunicare S.r.l.'],/v2/networks/reggio-emilia,reggio-emilia,Mi Muovo in Bici,Reggio Emilia,IT,44.6989932,10.6296859,False
"['BCycle, LLC']",/v2/networks/boulder,boulder,Boulder B-cycle,"Boulder, CO",US,40.00811,-105.26385,False
['Comunicare S.r.l.'],/v2/networks/rimini,rimini,Mi Muovo in Bici,Rimini,IT,44.0570817,12.5646003,False
"['BCycle, LLC']",/v2/networks/broward,broward,Broward B-cycle,"Fort Lauderdale, FL",US,26.12026,-80.14819,False
"['BCycle, LLC']",/v2/networks/bublr-bikes,bublr-bikes,Bublr Bikes,"Milwaukee, WI",US,43.0369,-87.89667,False
"['Shared Mobility Inc.', 'Social Bicycles Inc.']",/v2/networks/reddy-bike-share,reddy-bike-share,Reddy Bike Share,"Buffalo, NY",US,42.89373841865211,-78.8718044757843,False
"['Motivate International, Inc.', 'PBSC Urban Solutions']",/v2/networks/capital-bikeshare,capital-bikeshare,Capital BikeShare,"Washington, DC",US,38.8967584,-77.03701629999999,True
"['BCycle, LLC']",/v2/networks/charlotte,charlotte,Charlotte B-cycle,"Charlotte, NC",US,35.22716,-80.83855,False
['Comunicare S.r.l.'],/v2/networks/saluzzo,saluzzo,Saluzzo,Saluzzo,IT,44.6445404,7.492735499999999,False
"['BCycle, LLC']",/v2/networks/cincy-red-bike,cincy-red-bike,Cincy Red Bike,"Cincinnati, OH",US,39.10138,-84.51217,False
['Comunicare S.r.l.'],/v2/networks/savigliano,savigliano,Savigliano,Savigliano,IT,44.6470327,7.662463499999999,False
"['NYC Bike Share, LLC', 'Motivate International, Inc.', 'PBSC Urban Solutions']",/v2/networks/citi-bike-nyc,citi-bike-nyc,Citi Bike,"New York, NY",US,40.7143528,-74.00597309999999,True
['Comunicare S.r.l.'],/v2/networks/terni,terni,Terni,Terni,IT,42.5636168,12.6426604,False
"['Motivate International, Inc.', 'PBSC Urban Solutions']",/v2/networks/cogo,cogo,CoGo,"Columbus, OH",US,39.983333,-82.983333,True
['Lyft Inc.'],/v2/networks/denver,denver,Lyft,"Denver, CO",US,39.72055,-104.95253,False
"['Motivate International, Inc.', 'PBSC Urban Solutions']",/v2/networks/divvy,divvy,Divvy,"Chicago, IL",US,41.8781136,-87.6297982,True
['Comunicare S.r.l.'],/v2/networks/tirano-in-bici,tirano-in-bici,Tirano in Bici,Tirano,IT,46.216168,10.1696056,False
"['BCycle, LLC']",/v2/networks/elpaso,elpaso,El Paso B-cycle,"El Paso, TX",US,31.76148,-106.48507,False
"['BCycle, LLC']",/v2/networks/fortworth,fortworth,Fort Worth Bike Sharing,"Fort Worth, TX",US,32.7516,-97.32888,False
['Comunicare S.r.l.'],/v2/networks/udine,udine,Udine,Udine,IT,46.0710668,13.2345794,False
"['BCycle, LLC']",/v2/networks/greenbikeslc,greenbikeslc,GREENbike,Salt Lake City,US,40.76745,-111.88736,False
"['BCycle, LLC']",/v2/networks/omaha,omaha,Heartland B-cycle,"Omaha, NE",US,41.25832,-96.00853,False
"['BCycle, LLC']",/v2/networks/houston,houston,Houston B-cycle,"Houston, TX",US,29.75983,-95.36949,False
"['Motivate International, Inc.', 'PBSC Urban Solutions']",/v2/networks/blue-bikes,blue-bikes,Blue Bikes,"Boston, MA",US,42.3584308,-71.0597732,True
['Comunicare S.r.l.'],/v2/networks/ustica,ustica,Ustica,Ustica,IT,38.7031179,13.1682675,False
"['City of Philadelphia', 'Bicycle Transit Systems', 'BCycle, LLC']",/v2/networks/indego,indego,Indego,"Philadelphia, PA",US,39.95378,-75.16374,False
"['BCycle, LLC']",/v2/networks/indiana-pacers-bikeshare,indiana-pacers-bikeshare,Indiana Pacers Bikeshare,"Indianapolis, IN",US,39.76593,-86.16216,False
['Comunicare S.r.l.'],/v2/networks/bici-co,bici-co,BICI&CO,Como,IT,45.8080597,9.0851765,False
"['BCycle, LLC']",/v2/networks/madison,madison,B-cycle,"Madison, WI",US,43.07571,-89.38527,False
"['Los Angeles County Metropolitan Transportation Authority (Metro)', 'Bicycle Transit Systems', 'BCycle, LLC']",/v2/networks/metro-bike-share,metro-bike-share,Metro Bike Share,"Los Angeles, CA",US,34.04855,-118.25905,False
"['Nice Ride Minnesota', 'Lyft']",/v2/networks/nice-ride,nice-ride,Nice Ride,"Minneapolis, MN",US,44.983334,-93.26666999999999,False
['Comunicare S.r.l.'],/v2/networks/speziainbici,speziainbici,Speziainbici,La Spezia,IT,44.1024504,9.824082599999999,False
"['BCycle, LLC']",/v2/networks/sanantonio,sanantonio,SWell Cycle,"San Antonio, TX",US,29.43701,-98.48236,False
['Comunicare S.r.l.'],/v2/networks/venezia,venezia,Venezia,Venezia,IT,45.4408474,12.3155151,False
['Social Bicycles Inc.'],/v2/networks/sobi-long-beach,sobi-long-beach,SoBi,"Long Beach, CA",US,33.76897,-118.19164,False
['Comunicare S.r.l.'],/v2/networks/to-bike,to-bike,[TO]BIKE,Torino,IT,45.07098200000001,7.685676,False
['CycleHop LLC'],/v2/networks/relay-atlanta,relay-atlanta,HOPR,"Atlanta, GA",US,33.7627941119619,-84.38727110624313,False
"['Tembici', 'PBSC Urban Solutions']",/v2/networks/bikerecife,bikerecife,BikeRecife,Recife,BR,-8.047129,-34.873437,False
"['Tembici', 'PBSC Urban Solutions']",/v2/networks/bikesampa,bikesampa,BikeSampa,São Paulo,BR,-23.55,-46.6333,False
"['Tembici', 'PBSC Urban Solutions']",/v2/networks/bikerio,bikerio,BikeRio,Rio de Janeiro,BR,-22.904315,-43.184776,False
"['Tembici', 'PBSC Urban Solutions']",/v2/networks/bikesalvador,bikesalvador,BikeSalvador,Salvador,BR,-12.973959,-38.508171,False
"['Tembici', 'PBSC Urban Solutions']",/v2/networks/bikepoa,bikepoa,BikePOA,Porto Alegre,BR,-30.033079,-51.23654,False
"['BKT bici publica S.A. de C.V.', 'PBSC Urban Solutions']",/v2/networks/mibici-guadalajara,mibici-guadalajara,MIBICI,Guadalajara,MX,20.6737883,-103.3704325,False
['PBSC Urban Solutions'],/v2/networks/libelo,libelo,Libélo,Valence,FR,44.922726,4.905634,False
"['Tembici', 'PBSC Urban Solutions']",/v2/networks/bikesantiago,bikesantiago,BikeSantiago,Santiago,CL,-33.45,-70.67,False
,/v2/networks/oslo-bysykkel,oslo-bysykkel,Bysykkel,Oslo,NO,59.913869,10.752245,False
,/v2/networks/bergen-bysykkel,bergen-bysykkel,Bysykkel,Bergen,NO,60.391263,5.322054,False
,/v2/networks/trondheim-bysykkel,trondheim-bysykkel,Bysykkel,Trondheim,NO,63.4307238,10.3936781,False
"['Keolis', 'Rennes Metropole']",/v2/networks/le-velo-star,le-velo-star,LE vélo Star,Rennes,FR,48.114167,-1.680833,False
['Keolis Bordeaux Métropole'],/v2/networks/v3-bordeaux,v3-bordeaux,V³,Bordeaux,FR,44.837789,-0.57918,True
['Keolis'],/v2/networks/vlille,vlille,V'Lille,Lille,FR,50.62925,3.057256,False
['Cykleo SAS'],/v2/networks/idecycle,idecycle,IDEcycle,Pau,FR,43.2957547,-0.3685668,False
['Comunicare S.r.l.'],/v2/networks/ciclopi,ciclopi,Ciclopi,Pisa,IT,43.7228386,10.4016888,False
['Labici Bicicletas Públicas SL'],/v2/networks/muybici,muybici,MuyBici,Murcia,ES,37.9922399,-1.1306544,False
['Instituto Tecnológico de Castilla y León (ITCL)'],/v2/networks/vaibike,vaibike,VaiBike,Vilagarcía de Arousa,ES,42.5954,-8.7659,False
['Comunicare S.r.l.'],/v2/networks/cagliari,cagliari,Cagliari,Cagliari,IT,39.220817,9.121399,False
['Buenos Aires Ciudad'],/v2/networks/ecobici-buenos-aires,ecobici-buenos-aires,Ecobici,Buenos Aires,AR,-34.630665,-58.41156,False
['EMEL'],/v2/networks/gira,gira,Gira,Lisbon,PT,38.724954,-9.149334,False
['Comunicare S.r.l.'],/v2/networks/gimme-bike,gimme-bike,Gimme Bike,Varese,IT,45.8183902,8.823913,False
['JCDecaux'],/v2/networks/velo,velo,Vélô,Toulouse,FR,43.604652,1.444209,False
['JCDecaux'],/v2/networks/veloh,veloh,Veloh,Luxembourg,LU,49.6301025,6.1520185,False
['JCDecaux'],/v2/networks/valenbisi,valenbisi,Valenbisi,Valencia,ES,39.4699075,-0.3762881,False
['Comunicare S.r.l.'],/v2/networks/sellero,sellero,Sellero,Sellero,IT,46.06304765446406,10.353434085845947,False
['JCDecaux'],/v2/networks/lundahoj,lundahoj,Lundahoj,Lund,SE,55.7046601,13.1910073,False
['Comunicare S.r.l.'],/v2/networks/ugento,ugento,Ugento,Ugento,IT,39.9273518,18.1582962,False
['JCDecaux'],/v2/networks/tusbic,tusbic,Tusbic,Santander,ES,43.46230569999999,-3.8099803,False
['JCDecaux'],/v2/networks/velam,velam,Vélam,Amiens,FR,49.894067,2.295753,False
['JCDecaux'],/v2/networks/bysykkel-lillestrom,bysykkel-lillestrom,Bysykkel,Lillestrøm,NO,59.9559696,11.0503785,False
['JCDecaux'],/v2/networks/velocite-mulhouse,velocite-mulhouse,VéloCité,Mulhouse,FR,47.750839,7.335888,False
['Comunicare S.r.l.'],/v2/networks/prata-camportaccio,prata-camportaccio,Prata Camportaccio,Prata Camportaccio,IT,46.3042146,9.3964914,False
['JCDecaux'],/v2/networks/velov,velov,Vélo'V,Lyon,FR,45.764043,4.835659,False
['JCDecaux'],/v2/networks/bicikelj,bicikelj,Bicikelj,Ljubljana,SI,46.05645089999999,14.5080702,False
['Comunicare S.r.l.'],/v2/networks/civitavecchia,civitavecchia,Civitavecchia,Civitavecchia,IT,42.0937524,11.7922462,False
['JCDecaux'],/v2/networks/sevici,sevici,Sevici,Sevilla,ES,37.3880961,-5.9823299,False
['Comunicare S.r.l.'],/v2/networks/longanoinbici,longanoinbici,LonganoinBici,Barcellona Pozzo di Gotto,IT,38.149812517944284,15.212116241455078,False
['JCDecaux'],/v2/networks/li-bia-velo,li-bia-velo,Li bia velo,Namur,BE,50.465328,4.867665,False
['JCDecaux'],/v2/networks/velostanlib,velostanlib,vélOstan'lib,Nancy,FR,48.692054,6.184417,False
['JCDecaux'],/v2/networks/cristolib,cristolib,Cristolib,Créteil,FR,48.790367,2.455572,False
['JCDecaux'],/v2/networks/villo,villo,villo,Bruxelles,BE,50.8503396,4.3517103,False
['Comunicare S.r.l.'],/v2/networks/cassano-d-adda,cassano-d-adda,Cassano d'Adda,Cassano d'Adda,IT,45.5309616,9.5155813,False
['JCDecaux'],/v2/networks/velo2,velo2,Velo2,Cergy,FR,49.03561699999999,2.060325,False
['JCDecaux'],/v2/networks/vilnius-cyclocity,vilnius-cyclocity,Cyclocity,Vilnius,LT,54.6871555,25.2796514,False
['JCDecaux'],/v2/networks/toyama-cyclocity,toyama-cyclocity,cyclocity,富山市,JP,36.6959518,137.2136768,False
['Comunicare S.r.l.'],/v2/networks/bianzone-in-bici,bianzone-in-bici,Bianzone in Bici,Bianzone,IT,46.188197,10.109354,False
"['LeVélo AMP Métropole', 'Ville de Marseille', 'Fifteen SAS']",/v2/networks/le-velo,le-velo,LeVélo,Marseille,FR,43.296482,5.36978,False
['JCDecaux'],/v2/networks/bicloo,bicloo,Bicloo,Nantes,FR,47.218371,-1.553621,False
['JCDecaux'],/v2/networks/velocite-besancon,velocite-besancon,VéloCité,Besançon,FR,47.237829,6.024053899999999,False
['Comunicare S.r.l.'],/v2/networks/rietinbici,rietinbici,Rietinbici,Rieti,IT,42.40262397383167,12.86099910736084,False
['JCDecaux'],/v2/networks/dublinbikes,dublinbikes,dublinbikes,Dublin,IE,53.3498053,-6.2603097,False
['Nextbike GmbH'],/v2/networks/bicipalma,bicipalma,Bicipalma,Palma,ES,39.57119,2.646634,False
['Cyacle Bicycle Rental LLC'],/v2/networks/adcb-bikeshare,adcb-bikeshare,ADCB Bikeshare,Abu Dhabi,AE,24.450278,54.39,False
['Comunicare S.r.l.'],/v2/networks/castellucchio,castellucchio,Castellucchio,Castellucchio,IT,45.15047821582959,10.651202201843262,False
['Veolia'],/v2/networks/velobleu,velobleu,Vélo Bleu,Nice,FR,43.695949,7.271413,False
['Comunicare S.r.l.'],/v2/networks/notoinbici,notoinbici,NotoinBici,Noto,IT,36.889437754839854,15.074658393859863,False
['Comunicare S.r.l.'],/v2/networks/enna,enna,Enna,Enna,IT,37.56342572664775,14.27973747253418,False
['Comunicare S.r.l.'],/v2/networks/pordenone,pordenone,Pordenone,Pordenone,IT,45.94790101663391,12.674491020251475,False
['Veolia'],/v2/networks/vel-in,vel-in,Vél'in,Calais,FR,50.95,1.85,False
['Comunicare S.r.l.'],/v2/networks/carbonia,carbonia,Carbonia,Carbonia,IT,39.167222,8.522222,False
['Municipiul Cluj-Napoca'],/v2/networks/clujbike,clujbike,Cluj Bike,Cluj-Napoca,RO,46.775,23.5975,False
"['Prefeiture de Sorocaba', 'Urbes']",/v2/networks/integrabike,integrabike,Integrabike,Sorocaba,BR,-23.5015,-47.4526,False
['Comunicare S.r.l.'],/v2/networks/scegli-in-bici,scegli-in-bici,Scegli in Bici,Cremona,IT,45.134914104864116,10.0222648619018,False
"['Associação dos Amigos da Riviera de São Lourenço', 'Sobloco']",/v2/networks/rivibike,rivibike,RiviBike,São Lourenço,BR,-22.1124,-45.028,False
['Comunicare S.r.l.'],/v2/networks/e-motion-trento,e-motion-trento,e.motion,Trento,IT,46.06643205823519,11.122145390351879,False
"['Duke Energy Brasil', 'Governo de Ipaussu']",/v2/networks/dukebike,dukebike,DukeBike,Ipaússu,BR,-23.0553,-49.6237,False
"['Barcelona de Serveis Municipals, S.A. (BSM)', 'CESPA', 'PBSC']",/v2/networks/bicing,bicing,Bicing,Barcelona,ES,41.3850639,2.1734035,True
['Baksi Bike Sharing System'],/v2/networks/baksi-antalya,baksi-antalya,Baksi,Antalya,TR,36.862048,30.638866,False
['Baksi Bike Sharing System'],/v2/networks/baksi-bisim,baksi-bisim,Baksi,Izmir,TR,38.4134047464,27.0325753524,False
['Comunicare S.r.l.'],/v2/networks/e-motion-rovereto,e-motion-rovereto,e.motion,Rovereto,IT,45.88710661061543,11.042242751867644,False
['Baksi Bike Sharing System'],/v2/networks/baksi-istanbul,baksi-istanbul,Isbike,Istanbul,TR,40.9696887925,29.0475373717,False
['Baksi Bike Sharing System'],/v2/networks/baksi-kobis,baksi-kobis,Baksi,Kocaeli,TR,40.7674733342,29.9755885985,False
"['Helsinki City Transport', 'Helsinki Regional Transport', 'CityBikeFinland', 'Smoove SAS', 'Moventia', 'Alepa']",/v2/networks/citybikes-helsinki,citybikes-helsinki,City bikes,Helsinki,FI,60.16985569999999,24.938379,False
['Comunicare S.r.l.'],/v2/networks/monopoli-bike,monopoli-bike,Monopoli BIKE,Monopoli,IT,40.94519109440738,17.311687995336918,False
"['Turku Region Traffic Föli', 'DonkeyRepublic Admin ApS']",/v2/networks/foli,foli,Fölläri bikes,Turku,FI,60.4506,22.2666,False
['Comunicare S.r.l.'],/v2/networks/bicimia,bicimia,bicimia,Brescia,IT,45.5378,10.2173,False
['FSM Ground Services Ltd.'],/v2/networks/telofun,telofun,Tel-O-Fun,"Tel Aviv-Yaffo, Giv'atayim, Ramat-Gan",IL,32.087053,34.789776,False
['Comunicare S.r.l.'],/v2/networks/andria,andria,Andria in Bici,Andria,IT,41.224346932834,16.296983922753956,False
['Open Source Bike Share'],/v2/networks/whitebikes,whitebikes,WhiteBikes,Bratislava,SK,48.149424,17.113922,False
"['Dopravný podnik Bratislava', 'Bratislavská integrovaná doprava, a.s.', 'Hlavné mesto SR Bratislava']",/v2/networks/slovnaft-bajk,slovnaft-bajk,Slovnaft BAjk,Bratislava,SK,48.1356952,16.9758332,False
['Open Source Bike Share'],/v2/networks/cykl,cykl,Cykl,Wageningen,NL,51.974,5.6671,False
['Open Source Bike Share'],/v2/networks/bicyklezadobreskutky,bicyklezadobreskutky,Bicykle za dobré skutky,Prešov,SK,48.996275,21.234341,False
['Social Bicycles Inc.'],/v2/networks/socialbicycles-wavelo,socialbicycles-wavelo,Wavelo,Kraków,PL,50.06143,19.93658,False
['Comunicare S.r.l.'],/v2/networks/bicinquartucciu,bicinquartucciu,BicinQuartucciu,Quartucciu,IT,39.25043149806156,9.179296426489255,False
['Sistema de Bicicletas Públicas del Valle de Aburrá'],/v2/networks/encicla,encicla,EnCicla,Medellin,CO,6.2443,-75.5735,False
['Comunicare S.r.l.'],/v2/networks/olbia-bike,olbia-bike,Olbia Bike,Olbia,IT,40.9240543,9.4994397,False
"['Vanncouver Bike Share Inc.', 'CycleHop LLC', 'City of Vancouver', 'Shaw Communications Inc.', 'Fifteen']",/v2/networks/mobibikes,mobibikes,Mobi,Vancouver,CA,49.2827,-123.1207,False
['Comunicare S.r.l.'],/v2/networks/savona,savona,Savona,Savona,IT,44.29516444397244,8.463126708984431,False
"['CityBike France', 'PBSC Urban Solutions']",/v2/networks/c-velo,c-velo,C.vélo,Clermont-Ferrand,FR,45.7831,3.0824,False
['Fifteen'],/v2/networks/velivert,velivert,VéliVert,Saint-Étienne,FR,45.396667,4.290833,False
['Comunicare S.r.l.'],/v2/networks/brindisi,brindisi,BrindisiByBike,Brindisi,IT,40.637580319936106,17.940774547082572,False
"['TCRA Public Transport Region Avignon', 'Fifteen']",/v2/networks/velopop,velopop,Vélopop,Avignon,FR,43.943689,4.805833,False
['Smoove'],/v2/networks/batumvelo,batumvelo,Batumvelo,Batumi,GE,41.660906,41.678835,False
['Comunicare S.r.l.'],/v2/networks/tradate,tradate,Tradate,Tradate,IT,45.70938576720161,8.915993391601548,False
"['Mobilicidade Tecnologia LTD', 'Grupo Serttel LTDA']",/v2/networks/bikebh,bikebh,BikeBH,Belo Horizonte,BR,-19.920793,-43.922165,False
"['Mobilicidade Tecnologia LTD', 'Grupo Serttel LTDA']",/v2/networks/bikepetrolina,bikepetrolina,BikePetrolina,Petrolina,BR,-9.389049,-40.502751,False
['Comunicare S.r.l.'],/v2/networks/jesinbici,jesinbici,JesinBici,Jesi,IT,43.522601,13.244448,False
['Comunicare S.r.l.'],/v2/networks/nbici,nbici,nbici,Pamplona,ES,42.8116631,-1.6482653,False
['Tembici'],/v2/networks/bikebrasilia,bikebrasilia,BikeBrasilia,Brasília,BR,-15.795115,-47.887424,False
"['Mobilicidade Tecnologia LTD', 'Grupo Serttel LTDA']",/v2/networks/debikegoiania,debikegoiania,GynDebike,Goiânia,BR,-16.670492,-49.259535,False
['Comunicare S.r.l.'],/v2/networks/treviso,treviso,Treviso,Treviso,IT,45.6669011,12.243039,False
"['Mobilicidade Tecnologia LTD', 'Grupo Serttel LTDA']",/v2/networks/bicicletar,bicicletar,Bicicletar,Fortaleza,BR,-3.7321944,-38.510347,False
"['Mobilicidade Tecnologia LTD', 'Grupo Serttel LTDA']",/v2/networks/cajubike,cajubike,CajuBike,Aracajú,BR,-10.987263,-37.051898,False
"['Mobilicidade Tecnologia LTD', 'Grupo Serttel LTDA']",/v2/networks/bikebelem,bikebelem,Bike Belém,Belém,BR,-1.4600794,-48.490865,False
['Comunicare S.r.l.'],/v2/networks/sondrio,sondrio,Sondrio,Sondrio,IT,46.1698583,9.8787674,False
"['Mobilicidade Tecnologia LTD', 'Grupo Serttel LTDA']",/v2/networks/bikesantos,bikesantos,BikeSantos,Santos,BR,-23.954052,-46.333345,False
['Comunicare S.r.l.'],/v2/networks/vercelli,vercelli,Vercelli,Vercelli,IT,45.32022720000001,8.418573499999999,False
['Comunicare S.r.l.'],/v2/networks/portofino-park-and-bike,portofino-park-and-bike,Portofino Park and Bike,Santa Margherita Ligure - Portofino - Camogli,IT,44.335084,9.211264,False
"['Mobilicidade Tecnologia LTD', 'Municipalidad de Rosario']",/v2/networks/mibicitubici,mibicitubici,Mi bici tu bici,Rosario,AR,-32.95,-60.65,False
['Comunicare S.r.l.'],/v2/networks/meglio-in-bici,meglio-in-bici,Meglio in Bici,Cernusco sul Naviglio - Pioltello - Carugate,IT,45.520541,9.341984,False
"['BCycle, LLC']",/v2/networks/desmoines,desmoines,Des Moines B-cycle,"Des Moines, IA",US,41.6005448,-93.6091064,False
['Comunicare S.r.l.'],/v2/networks/ossola,ossola,Comunità Montana Valli dell'Ossola,Santa Maria Maggiore - Malesco - Villette,IT,46.127196,8.499169,False
"['BCycle, LLC']",/v2/networks/greenville,greenville,Greenville B-cycle,"Greenville, SC",US,34.85261759999999,-82.3940104,False
['Comunicare S.r.l.'],/v2/networks/bicincitta-mezzolombardo,bicincitta-mezzolombardo,Bicincittà,Mezzolombardo,IT,46.21400260000001,11.0967867,False
['Comunicare S.r.l.'],/v2/networks/bicincitta-scafati,bicincitta-scafati,Bicincittà,Scafati,IT,40.7620174,14.5363969,False
['Comunicare S.r.l.'],/v2/networks/bicincitta-livorno,bicincitta-livorno,Bicincittà,Livorno,IT,43.548473,10.3105674,False
['Comunicare S.r.l.'],/v2/networks/bicincitta-forli,bicincitta-forli,Mi Muovo in Bici,Forlì,IT,44.2227398,12.0407312,False
['Comunicare S.r.l.'],/v2/networks/bicincitta-rivarolo-canavese,bicincitta-rivarolo-canavese,Bicincittà,Rivarolo Canavese,IT,45.306633,7.723242,False
['Comunicare S.r.l.'],/v2/networks/bicincitta-monserrato,bicincitta-monserrato,Bicincittà,Monserrato,IT,39.2560191,9.1453579,False
['Comunicare S.r.l.'],/v2/networks/bicincitta-mezzocorona,bicincitta-mezzocorona,Bicincittà,Mezzocorona,IT,46.2339047,11.1277461,False
['Comunicare S.r.l.'],/v2/networks/bicincitta-san-lazzaro-di-savena,bicincitta-san-lazzaro-di-savena,Mi Muovo in Bici,San Lazzaro di Savena,IT,44.4702725,11.409399,False
['Comunicare S.r.l.'],/v2/networks/bicincitta-san-teodoro,bicincitta-san-teodoro,Bicincittà,San Teodoro,IT,40.7722837,9.6695458,False
['Comunicare S.r.l.'],/v2/networks/bicincitta-parco-molentargius-saline,bicincitta-parco-molentargius-saline,Bicincittà,Parco Naturale Molentargius - Saline,IT,39.2052545,9.146761099999999,False
['Comunicare S.r.l.'],/v2/networks/parkinbici,parkinbici,Parkinbici,Parco Nazionale del Gargano,IT,41.7817081,15.8516421,False
['Comunicare S.r.l.'],/v2/networks/bicincitta-gallipoli,bicincitta-gallipoli,Bicincittà,Gallipoli,IT,40.0558554,17.9925085,False
['Comunicare S.r.l.'],/v2/networks/bicincitta-castel-guelfo-the-style-outlets,bicincitta-castel-guelfo-the-style-outlets,Bicincittà,Castel Guelfo di Bologna,IT,44.4328527,11.6750857,False
['Comunicare S.r.l.'],/v2/networks/bicincitta-san-michele-alladige,bicincitta-san-michele-alladige,Bicincittà,San Michele All'adige,IT,46.1878653,11.1330423,False
['Comunicare S.r.l.'],/v2/networks/bicincitta-modena,bicincitta-modena,Mi Muovo in bici,Modena,IT,44.647128,10.9252269,False
['Comunicare S.r.l.'],/v2/networks/bicincitta-brancaleone,bicincitta-brancaleone,Bicincittà,Brancaleone,IT,37.9679084,16.0757749,False
['Comunicare S.r.l.'],/v2/networks/bicincitta-scandiano,bicincitta-scandiano,Mi Muovo in Bici,Scandiano,IT,44.5982342,10.6909273,False
['Comunicare S.r.l.'],/v2/networks/bicincitta-elmas,bicincitta-elmas,Bicincittà,Elmas,IT,39.2634329,9.0515805,False
['Comunicare S.r.l.'],/v2/networks/bicincitta-tivat,bicincitta-tivat,Bicincittà,TV,ME,42.4349809,18.7066398,False
['Comunicare S.r.l.'],/v2/networks/bicincitta-acquaviva-delle-fonti,bicincitta-acquaviva-delle-fonti,Bicincittà,Acquaviva delle fonti,IT,40.9303721,16.8414374,False
['Comunicare S.r.l.'],/v2/networks/we-love-bike,we-love-bike,We Love bike,Lodi,IT,45.3097228,9.503715999999999,False
['Comunicare S.r.l.'],/v2/networks/bicincitta-acquarica-del-capo,bicincitta-acquarica-del-capo,Bicincittà,Acquarica del Capo,IT,39.9144573,18.2450324,False
['Comunicare S.r.l.'],/v2/networks/bicincitta-vicolungo-the-style-outlets,bicincitta-vicolungo-the-style-outlets,Bicincittà,Vicolungo,IT,45.47167229999999,8.4633922,False
['Comunicare S.r.l.'],/v2/networks/bicincitta-porto-torres,bicincitta-porto-torres,Bicincittà,Porto Torres,IT,40.8333682,8.402292899999999,False
['Comunicare S.r.l.'],/v2/networks/bicincitta-cisterna-di-latina,bicincitta-cisterna-di-latina,Bicincittà,Cisterna di Latina,IT,41.5754029,12.8284772,False
['Comunicare S.r.l.'],/v2/networks/bicincitta-casaletto-spartano,bicincitta-casaletto-spartano,Bicincittà,Casaletto Spartano,IT,40.1532801,15.6211479,False
['Comunicare S.r.l.'],/v2/networks/bicincitta-selargius,bicincitta-selargius,Bicincittà,Selargius,IT,39.2596768,9.1629372,False
['Comunicare S.r.l.'],/v2/networks/bicincitta-monza,bicincitta-monza,Bicincittà,Monza,IT,45.5845001,9.2744485,False
['Comunicare S.r.l.'],/v2/networks/bicincitta-morigerati,bicincitta-morigerati,Bicincittà,Morigerati,IT,40.1422031,15.5298525,False
['Comunicare S.r.l.'],/v2/networks/bicincitta-san-donato-milanese,bicincitta-san-donato-milanese,Bicincittà,San Donato Milanese,IT,45.4092402,9.2684867,False
['Comunicare S.r.l.'],/v2/networks/bicincitta-ente-parco-del-circeo,bicincitta-ente-parco-del-circeo,Bicincittà,Parco Nazionale del Circeo,IT,41.3151015,13.0330782,False
['Comunicare S.r.l.'],/v2/networks/bicincitta-cesena,bicincitta-cesena,Mi Muovo in bici,Cesena,IT,44.1396438,12.2464292,False
['Comunicare S.r.l.'],/v2/networks/lecco,lecco,Bicincittà,Lecco,IT,45.8565698,9.397670399999999,False
['Comunicare S.r.l.'],/v2/networks/bicincitta-alghero,bicincitta-alghero,Bicincittà,Alghero,IT,40.5579517,8.319294900000001,False
['Comunicare S.r.l.'],/v2/networks/bicincitta-san-giovanni-in-persiceto,bicincitta-san-giovanni-in-persiceto,Mi Muovo in Bici,San Giovanni in Persiceto,IT,44.6405433,11.1893053,False
['Comunicare S.r.l.'],/v2/networks/bicincitta-ente-parco-san-rossore,bicincitta-ente-parco-san-rossore,Bicincittà,Parco naturale Migliarino San Rossore Massaciuccoli,IT,43.723826,10.339509,False
['Comunicare S.r.l.'],/v2/networks/bicincitta-treviglio,bicincitta-treviglio,Bicincittà,Treviglio,IT,45.5293372,9.591435899999999,False
['Comunicare S.r.l.'],/v2/networks/bicincitta-lavis,bicincitta-lavis,Bicincittà,Lavis,IT,46.1408423,11.1124935,False
['Comunicare S.r.l.'],/v2/networks/bicincitta-ente-parco-di-montemarcello-magra,bicincitta-ente-parco-di-montemarcello-magra,Bicincittà,Ente Parco Montemarcello Magra,IT,44.1143897,9.9635986,False
['Comunicare S.r.l.'],/v2/networks/bicischio,bicischio,BiciSchio,Schio,IT,45.7170517,11.3597702,False
['Comunicare S.r.l.'],/v2/networks/bicincitta-imola,bicincitta-imola,Mi Muovo in bici,Imola,IT,44.3559128,11.7161197,False
['Nextbike GmbH'],/v2/networks/nextbike-leipzig,nextbike-leipzig,Nextbike,Leipzig,DE,51.3415,12.3625,False
['Nextbike GmbH'],/v2/networks/nextbike-wiesbaden,nextbike-wiesbaden,Nextbike,Wiesbaden,DE,50.0709,8.24322,False
['Nextbike GmbH'],/v2/networks/visa-frankfurt,visa-frankfurt,VISA,Frankfurt,DE,50.1072,8.66375,False
['Nextbike GmbH'],/v2/networks/kvb-rad-koln,kvb-rad-koln,KVB Rad,Köln,DE,50.9429,6.95649,False
['Nextbike GmbH'],/v2/networks/facherrad-karlsruhe,facherrad-karlsruhe,Fächerrad,Karlsruhe,DE,49.0102,8.41827,False
['Nextbike GmbH'],/v2/networks/burgenland-neusiedler-see,burgenland-neusiedler-see,Burgenland,Neusiedler See,AT,47.839,16.761,False
['Nextbike GmbH'],/v2/networks/nextbike-dusseldorf,nextbike-dusseldorf,Nextbike,Düsseldorf,DE,51.2243,6.77204,False
['Nextbike GmbH'],/v2/networks/nextbike-stpolten,nextbike-stpolten,Nextbike,St.Pölten,AT,48.2058,15.6232,False
['Nextbike GmbH'],/v2/networks/nextbike-modling,nextbike-modling,Nextbike,Mödling,AT,48.1047,16.3202,False
['Nextbike GmbH'],/v2/networks/nextbike-sursee,nextbike-sursee,Nextbike,Sursee,CH,47.1713,8.10877,False
['Nextbike GmbH'],/v2/networks/nextbike-luzern,nextbike-luzern,Nextbike,Luzern,CH,47.0472,8.30446,False
['Nextbike GmbH'],/v2/networks/sixt-riga,sixt-riga,SiXT,Rīga,LV,56.9453,24.1033,False
['Nextbike GmbH'],/v2/networks/metropolradruhr-dortmund,metropolradruhr-dortmund,metropolradruhr,Dortmund,DE,51.5141,7.46255,False
['Nextbike GmbH'],/v2/networks/metropolradruhr-bochum,metropolradruhr-bochum,metropolradruhr,Bochum,DE,51.4813,7.2133,False
['Nextbike GmbH'],/v2/networks/metropolradruhr-bottrop,metropolradruhr-bottrop,metropolradruhr,Bottrop,DE,51.5263,6.94611,False
['Nextbike GmbH'],/v2/networks/metropolradruhr-duisburg,metropolradruhr-duisburg,metropolradruhr,Duisburg,DE,51.4487,6.77513,False
['Nextbike GmbH'],/v2/networks/metropolradruhr-essen,metropolradruhr-essen,metropolradruhr,Essen,DE,51.4425,7.02301,False
['Nextbike GmbH'],/v2/networks/metropolradruhr-gelsenkirchen,metropolradruhr-gelsenkirchen,metropolradruhr,Gelsenkirchen,DE,51.5404,7.07039,False
['Nextbike GmbH'],/v2/networks/metropolradruhr-hamm,metropolradruhr-hamm,metropolradruhr,Hamm,DE,51.6775,7.84836,False
['Nextbike GmbH'],/v2/networks/metropolradruhr-herne,metropolradruhr-herne,metropolradruhr,Herne,DE,51.5363,7.21493,False
['Nextbike GmbH'],/v2/networks/metropolradruhr-mulheim-adr,metropolradruhr-mulheim-adr,metropolradruhr,Mülheim a.d.R.,DE,51.4308,6.87401,False
['Nextbike GmbH'],/v2/networks/metropolradruhr-oberhausen,metropolradruhr-oberhausen,metropolradruhr,Oberhausen,DE,51.4936,6.85169,False
['Nextbike GmbH'],/v2/networks/nextbike-wachau,nextbike-wachau,Nextbike,Wachau,AT,48.3188,15.4166,False
['Nextbike GmbH'],/v2/networks/nextbike-tulln,nextbike-tulln,Nextbike,Tulln,AT,48.3269,16.0569,False
['Nextbike GmbH'],/v2/networks/nextbike-thermenregion,nextbike-thermenregion,Nextbike,Thermenregion,AT,47.9892,16.2646,False
['Nextbike GmbH'],/v2/networks/wrm-wroclaw,wrm-wroclaw,WRM,Wrocław,PL,51.1097,17.0485,False
['Nextbike GmbH'],/v2/networks/nextbike-offenburg,nextbike-offenburg,Nextbike,Offenburg,DE,48.4721,7.94243,False
['Nextbike GmbH'],/v2/networks/nextbike-wrneustadt,nextbike-wrneustadt,Nextbike,Wr.Neustadt,AT,47.8167,16.2426,False
['Nextbike GmbH'],/v2/networks/nextbike-potsdam,nextbike-potsdam,Nextbike,Potsdam,DE,52.3997,13.0676,False
['Nextbike GmbH'],/v2/networks/nextbike-gutersloh,nextbike-gutersloh,Nextbike,Gütersloh,DE,51.9049,8.39275,False
['Nextbike GmbH'],/v2/networks/nextbike-10vorwien,nextbike-10vorwien,Nextbike,10vorWien,AT,48.3403,16.279,False
['Nextbike GmbH'],/v2/networks/usedomrad-usedom,usedomrad-usedom,UsedomRad,Usedom,DE,53.9779,13.9925,False
['Nextbike GmbH'],/v2/networks/nextbike-norderstedt,nextbike-norderstedt,Nextbike,Norderstedt,DE,53.6969,10.002,False
['Nextbike GmbH'],/v2/networks/swa-rad-augsburg,swa-rad-augsburg,SWA Rad,Augsburg,DE,48.3647,10.8916,False
['Nextbike GmbH'],/v2/networks/nextbike-limassol,nextbike-limassol,Nextbike,Limassol,CY,34.6823,33.0464,False
['Nextbike GmbH'],/v2/networks/nextbike-christchurch,nextbike-christchurch,Nextbike,Christchurch,NZ,-43.5341,172.621,False
['Nextbike GmbH'],/v2/networks/vrn-heidelberg,vrn-heidelberg,VRN,Heidelberg,DE,49.4023,8.67577,False
['Nextbike GmbH'],/v2/networks/vrn-mannheim,vrn-mannheim,VRN,Mannheim,DE,49.4869,8.45638,False
['Nextbike GmbH'],/v2/networks/stadtrad-innsbruck,stadtrad-innsbruck,Stadtrad,Innsbruck,AT,47.2632,11.3961,False
['Nextbike GmbH'],/v2/networks/nextbike-nicosia,nextbike-nicosia,Nextbike,Nicosia,CY,35.1728,33.3653,False
['Nextbike GmbH'],/v2/networks/nextbike-hollabrunn,nextbike-hollabrunn,Nextbike,Hollabrunn,AT,48.562,16.0785,False
['Nextbike GmbH'],/v2/networks/nextbike-wienerwald,nextbike-wienerwald,Nextbike,WienerWald,AT,48.1926,16.141,False
['Nextbike GmbH'],/v2/networks/nextbike-zagreb,nextbike-zagreb,Nextbike,Zagreb,HR,45.7984,15.9789,False
['Nextbike GmbH'],/v2/networks/nextbike-glasgow,nextbike-glasgow,Nextbike,Glasgow,GB,55.8589,-4.25549,False
['Nextbike GmbH'],/v2/networks/belfastbikes-belfast,belfastbikes-belfast,BelfastBikes,Belfast,GB,54.5969,-5.92918,False
['Nextbike GmbH'],/v2/networks/nextbike-stirling,nextbike-stirling,Nextbike,Stirling,GB,56.1165,-3.9369,False
['Nextbike GmbH'],/v2/networks/grad-sibenik-sibenik,grad-sibenik-sibenik,Grad Šibenik,Šibenik,HR,43.733,15.8982,False
['Nextbike GmbH'],/v2/networks/lrm-lublin-lublin,lrm-lublin-lublin,LRM Lublin,Lublin,PL,51.2469,22.5697,False
['Nextbike GmbH'],/v2/networks/vrn-ludwigshafen,vrn-ludwigshafen,VRN,Ludwigshafen,DE,49.4741,8.43287,False
['Nextbike GmbH'],/v2/networks/vrn-speyer,vrn-speyer,VRN,Speyer,DE,49.3126,8.45295,False
['Nextbike GmbH'],/v2/networks/nextbike-lviv,nextbike-lviv,Nextbike,Lviv,UA,49.8402,24.0182,False
['Nextbike GmbH'],/v2/networks/nextbike-wurzburg,nextbike-wurzburg,Nextbike,Würzburg,DE,49.8,9.93333,False
['Nextbike GmbH'],/v2/networks/nextbike-serfaus,nextbike-serfaus,Nextbike,Serfaus,AT,47.0387,10.6048,False
['Nextbike GmbH'],/v2/networks/nextbike-malta,nextbike-malta,Nextbike,Malta,MT,35.9192,14.4889,False
['Nextbike GmbH'],/v2/networks/grad-karlovac-karlovac,grad-karlovac-karlovac,Grad Karlovac,Karlovac,HR,45.4905,15.5503,False
['Nextbike GmbH'],/v2/networks/grad-slavonski-brod-slavonski-brod,grad-slavonski-brod-slavonski-brod,Grad Slavonski Brod,Slavonski Brod,HR,45.1656,18.0183,False
['Nextbike GmbH'],/v2/networks/santander-cycles-mk-milton-keynes,santander-cycles-mk-milton-keynes,Santander Cycles MK,Milton Keynes,GB,52.0406,-0.759417,False
['Nextbike GmbH'],/v2/networks/nextbike-hergiswil,nextbike-hergiswil,Nextbike,Hergiswil,CH,46.9905,8.30829,False
['Nextbike GmbH'],/v2/networks/grad-makarska-makarska,grad-makarska-makarska,Grad Makarska,Makarska,HR,43.2992,17.0184,False
['Nextbike GmbH'],/v2/networks/opcina-brinje-brinje,opcina-brinje-brinje,Općina Brinje,Brinje,HR,44.9977,15.1258,False
['Nextbike GmbH'],/v2/networks/grad-zadar-zadar,grad-zadar-zadar,Grad Zadar,Zadar,HR,44.0058,15.2183,False
['Nextbike GmbH'],/v2/networks/vrn-bensheim,vrn-bensheim,VRN,Bensheim,DE,49.6803,8.6189,False
['Nextbike GmbH'],/v2/networks/grad-ivanic-grad-ivanic-grad,grad-ivanic-grad-ivanic-grad,Grad Ivanić-Grad,Ivanic Grad,HR,45.7062,16.3919,False
['Nextbike GmbH'],/v2/networks/nextbike-sarajevo,nextbike-sarajevo,Nextbike,Sarajevo,BA,43.85,18.39,False
['Nextbike GmbH'],/v2/networks/co-bikes-exeter,co-bikes-exeter,Co-bikes,Exeter,GB,50.7272,-3.53605,False
['Nextbike GmbH'],/v2/networks/nextbike-auckland-waterfront,nextbike-auckland-waterfront,Nextbike,Auckland Waterfront,NZ,-36.841,174.763,False
['Nextbike GmbH'],/v2/networks/nextbike-berlin,nextbike-berlin,Nextbike,Berlin,DE,52.5087,13.3563,False
['Nextbike GmbH'],/v2/networks/wk-bike-bremen-bremen,wk-bike-bremen-bremen,WK-Bike,Bremen,DE,53.0781,8.80132,False
['Nextbike GmbH'],/v2/networks/vrn-worms,vrn-worms,VRN,Worms,DE,49.6394,8.34618,False
['Nextbike GmbH'],/v2/networks/nextbike-stans,nextbike-stans,Nextbike,Stans,CH,46.9593,8.36836,False
['Nextbike GmbH'],/v2/networks/nextbike-stansstad,nextbike-stansstad,Nextbike,Stansstad,CH,46.9801,8.34098,False
['Nextbike GmbH'],/v2/networks/nextbike-horw,nextbike-horw,Nextbike,Horw,CH,47.0188,8.30828,False
['Nextbike GmbH'],/v2/networks/vrn-burstadt,vrn-burstadt,VRN,Bürstadt,DE,49.6461,8.44917,False
['Nextbike GmbH'],/v2/networks/nextbike-gross-enzersdorf,nextbike-gross-enzersdorf,Nextbike,Groß Enzersdorf,AT,48.1986,16.5496,False
['Nextbike GmbH'],/v2/networks/nextbike-klagenfurt,nextbike-klagenfurt,Nextbike,Klagenfurt,AT,46.6335,14.3085,False
['Nextbike GmbH'],/v2/networks/vrn-kaiserslautern,vrn-kaiserslautern,VRN,Kaiserslautern,DE,49.4413,7.75566,False
['Nextbike GmbH'],/v2/networks/sitycleta-las-palmas-las-palmas-de-gran-canaria,sitycleta-las-palmas-las-palmas-de-gran-canaria,Sitycleta,Las Palmas de Gran Canaria,ES,28.1236,-15.4366,False
['Nextbike GmbH'],/v2/networks/grad-velika-gorica-velika-gorica,grad-velika-gorica-velika-gorica,Grad Velika Gorica,Velika Gorica,HR,45.7161,16.0683,False
['Nextbike GmbH'],/v2/networks/grad-sisak-sisak,grad-sisak-sisak,Grad Sisak,Sisak,HR,45.4875,16.3753,False
['Nextbike GmbH'],/v2/networks/grad-metkovic-metkovic,grad-metkovic-metkovic,Grad Metković,Metković,HR,43.0654,17.642,False
['Nextbike GmbH'],/v2/networks/jastrebarsko-jastrebarsko,jastrebarsko-jastrebarsko,Nextbike,Jastrebarsko,HR,45.6692,15.6541,False
['Nextbike GmbH'],/v2/networks/grad-drnis-drnis,grad-drnis-drnis,Nextbike,Drniš,HR,43.8425,16.1197,False
['Nextbike GmbH'],/v2/networks/nextbike-tuzla,nextbike-tuzla,Nextbike,Tuzla,BA,44.5392,18.675,False
['Nextbike GmbH'],/v2/networks/arriva-nitra,arriva-nitra,Arriva,Nitra,SK,48.3088,18.0783,False
['Nextbike GmbH'],/v2/networks/nextbike-marburg,nextbike-marburg,Nextbike,Marburg,DE,50.8019,8.76444,False
['Nextbike GmbH'],/v2/networks/bubi,bubi,MOL Bubi,Budapest,HU,47.497912,19.040235,False
['Nextbike GmbH'],/v2/networks/nextbike-russelsheim-am-main,nextbike-russelsheim-am-main,Nextbike,Rüsselsheim am Main,DE,49.9881,8.42142,False
['Nextbike GmbH'],/v2/networks/vrn-heppenheim,vrn-heppenheim,VRN,Heppenheim,DE,49.6431,8.63889,False
['Nextbike GmbH'],/v2/networks/nextbike-kassel,nextbike-kassel,Nextbike,Kassel,DE,51.3127,9.47975,False
['Nextbike GmbH'],/v2/networks/nextbike-sarnen,nextbike-sarnen,Nextbike,Sarnen,CH,46.8963,8.24614,False
['Nextbike GmbH'],/v2/networks/nextbike-wolfenschiessen,nextbike-wolfenschiessen,Nextbike,Wolfenschiessen,CH,46.9079,8.39767,False
['Nextbike GmbH'],/v2/networks/nextbike-oberdorf,nextbike-oberdorf,Nextbike,Oberdorf,CH,46.9563,8.3884,False
['Nextbike GmbH'],/v2/networks/nextbike-giessen,nextbike-giessen,Nextbike,Gießen,DE,50.5943,8.68097,False
['Nextbike GmbH'],/v2/networks/vrn-weinheim,vrn-weinheim,VRN,Weinheim,DE,49.545,8.66027,False
['Nextbike GmbH'],/v2/networks/nextbike-cardiff,nextbike-cardiff,Nextbike,Cardiff,GB,51.4848,-3.19062,False
['Nextbike GmbH'],/v2/networks/vrn-hockenheim,vrn-hockenheim,VRN,Hockenheim,DE,49.3227,8.54258,False
['Nextbike GmbH'],/v2/networks/vrn-schwetzingen,vrn-schwetzingen,VRN,Schwetzingen,DE,49.3863,8.5756,False
['Nextbike GmbH'],/v2/networks/nextbike-ennetmoos,nextbike-ennetmoos,Nextbike,Ennetmoos,CH,46.9573,8.3377,False
['Nextbike GmbH'],/v2/networks/vrn-eppelheim,vrn-eppelheim,VRN,Eppelheim,DE,49.4025,8.6331,False
['Nextbike GmbH'],/v2/networks/nextbike-university-of-surrey,nextbike-university-of-surrey,Nextbike,Surrey,GB,51.2422,-0.590594,False
['Nextbike GmbH'],/v2/networks/santander-cycles-swansea-swansea-university,santander-cycles-swansea-swansea-university,Santander Cycles,Swansea,GB,51.6106,-3.9764,False
['Nextbike GmbH'],/v2/networks/nextbike-erfurt,nextbike-erfurt,Nextbike,Erfurt,DE,50.9785,11.0334,False
['Nextbike GmbH'],/v2/networks/bl-bike-banja-luka,bl-bike-banja-luka,BL bike,Banja Luka,BA,44.775,17.1994,False
['Nextbike GmbH'],/v2/networks/lahr-pedelecs-lahr,lahr-pedelecs-lahr,Nextbike,Lahr,DE,48.3396,7.87376,False
['Nextbike GmbH'],/v2/networks/lviv-odessa,lviv-odessa,Nextbike,Odessa,UA,46.463,30.7042,False
['Nextbike GmbH'],/v2/networks/santander-monchengladbach,santander-monchengladbach,Santander Mönchengladbach,Mönchengladbach,DE,51.1817,6.43578,False
['Nextbike GmbH'],/v2/networks/nomagobikes-celje,nomagobikes-celje,NomagoBikes,Celje,SI,46.2388,15.2693,False
['Nextbike GmbH'],/v2/networks/bilbon-bizi,bilbon-bizi,BilbonBizi,Bilbao,ES,43.2752,-2.93528,False
['Nextbike GmbH'],/v2/networks/nomagobikes-lasko,nomagobikes-lasko,NomagoBikes,Laško,SI,46.1458,15.2312,False
['Nextbike GmbH'],/v2/networks/nextbike-lippstadt,nextbike-lippstadt,Nextbike,Lippstadt,DE,51.6755,8.34394,False
['Nextbike GmbH'],/v2/networks/bikekia-zilina,bikekia-zilina,BikeKia,Žilina,SK,49.2217,18.7572,False
['Nextbike GmbH'],/v2/networks/nextbike-vinnytsia,nextbike-vinnytsia,Nextbike,Vinnytsia,UA,49.2328,28.4625,False
['Nextbike GmbH'],/v2/networks/nextbike-bonn,nextbike-bonn,Nextbike,Bonn,DE,50.7367,7.09541,False
['Nextbike GmbH'],/v2/networks/rowerowe-lodzkie-rl-koluszki,rowerowe-lodzkie-rl-koluszki,Rowerowe Łódzkie,Koluszki,PL,51.7401,19.835,False
['Nextbike GmbH'],/v2/networks/rowerowe-lodzkie-rl-lask,rowerowe-lodzkie-rl-lask,Rowerowe Łódzkie,Łask,PL,51.5893,19.142,False
['Nextbike GmbH'],/v2/networks/rowerowe-lodzkie-rl-lowicz,rowerowe-lodzkie-rl-lowicz,Rowerowe Łódzkie,Łowicz,PL,52.1057,19.9381,False
['Nextbike GmbH'],/v2/networks/rowerowe-lodzkie-rl-pabianice,rowerowe-lodzkie-rl-pabianice,Rowerowe Łódzkie,Pabianice,PL,51.6651,19.3548,False
['Nextbike GmbH'],/v2/networks/rowerowe-lodzkie-rl-sieradz,rowerowe-lodzkie-rl-sieradz,Rowerowe Łódzkie,Sieradz,PL,51.5902,18.7382,False
['Nextbike GmbH'],/v2/networks/rowerowe-lodzkie-rl-skierniewice,rowerowe-lodzkie-rl-skierniewice,Rowerowe Łódzkie,Skierniewice,PL,51.9539,20.1469,False
['Nextbike GmbH'],/v2/networks/rowerowe-lodzkie-rl-zdunska-wola,rowerowe-lodzkie-rl-zdunska-wola,Rowerowe Łódzkie,Zduńska Wola,PL,51.6011,18.938,False
['Nextbike GmbH'],/v2/networks/rowerowe-lodzkie-rl-zgierz,rowerowe-lodzkie-rl-zgierz,Rowerowe Łódzkie,Zgierz,PL,51.8551,19.4068,False
['Nextbike GmbH'],/v2/networks/rowerowe-lodzkie-rl-kutno,rowerowe-lodzkie-rl-kutno,Rowerowe Łódzkie,Kutno,PL,52.2317,19.3564,False
['Nextbike GmbH'],/v2/networks/rowerowe-lodzkie-rl-lodz-rl,rowerowe-lodzkie-rl-lodz-rl,Rowerowe Łódzkie,Łódź,PL,51.7674,19.4575,False
['Nextbike GmbH'],/v2/networks/frelo-freiburg,frelo-freiburg,Frelo,Freiburg,DE,47.9958,7.84453,False
['Comunicare S.r.l.'],/v2/networks/bicincitta-trieste,bicincitta-trieste,BiTS,Trieste,IT,45.6495,13.7768,False
['Nextbike GmbH'],/v2/networks/mobibike-dresden,mobibike-dresden,MOBIbike,Dresden,DE,51.0535,13.7387,False
['ЗАО «СитиБайк»'],/v2/networks/velobike-murmansk,velobike-murmansk,Velobike,Murmansk,RU,68.968,33.074,False
['ЗАО «СитиБайк»'],/v2/networks/velobike-nizhniy-novgorod,velobike-nizhniy-novgorod,Velobike,Nizhniy Novgorod,RU,56.194,44.003,False
['Nextbike GmbH'],/v2/networks/nextbike-ivano-frankivsk,nextbike-ivano-frankivsk,Nextbike,Ivano Frankivsk,UA,48.9281,24.7103,False
"['Velobike.kz, LLP', 'Smoove']",/v2/networks/almatybike,almatybike,Almatybike,Almaty,KZ,43.239101,76.9268076,False
"['Velobike.kz, LLP', 'Smoove']",/v2/networks/shymkentbike,shymkentbike,Shymkentbike,Shymkent,KZ,42.3184,69.5978,False
['Motivate LLC'],/v2/networks/bay-wheels,bay-wheels,Bay Wheels,"San Francisco Bay Area, CA",US,37.7141454,-122.25,False
['Smoove'],/v2/networks/veloceo,veloceo,Vélocéo,Vannes,FR,47.6559,-2.7603,False
['PBSC Urban Solutions'],/v2/networks/monabike,monabike,MonaBike,Monaco,MC,43.733333,7.416667,False
['Ecovelo'],/v2/networks/tlp-velo,tlp-velo,Tarbes et Lourdes vls,"Tarbes, Lourdes",FR,43.23,0.07,True
['Ecovelo'],/v2/networks/zebullo,zebullo,ZébullO,Reims,FR,49.2628,4.0347,True
['Ecovelo'],/v2/networks/velectin,velectin,Velect’in,Calais,FR,50.948056,1.856389,True
['Ecovelo'],/v2/networks/rubis-velo,rubis-velo,Rubis'Vélo,Bourg-en-Bresse,FR,46.2056,5.2289,False
['Ecovelo'],/v2/networks/tanlib,tanlib,Vélo tanlib,Niort,FR,46.3258,-0.4606,True
['Ecovelo'],/v2/networks/marseillan,marseillan,Marseillan vélo libre-service,Marseillan,FR,43.3572,3.5283,False
['Ecovelo'],/v2/networks/via-velo,via-velo,VIA Vélo,Val d'Ille-Aubigné,FR,48.2181,-1.6947,True
['Ecovelo'],/v2/networks/velyceo,velyceo,vélYcéo,Saint-Nazaire,FR,47.2806,-2.2086,True
['Ecovelo'],/v2/networks/velocite-laon,velocite-laon,Vélo'Cité,Laon,FR,49.5639,3.6244,True
['Ecovelo'],/v2/networks/velo-baulois,velo-baulois,Le Vélo Baulois,La Baule-Escoublac,FR,47.2867,-2.3908,True
['Ecovelo'],/v2/networks/le-marcel,le-marcel,Le Marcel,Troyes,FR,48.2997,4.0792,True
['Ecovelo'],/v2/networks/tempo-velo,tempo-velo,Tempo Vélo,Agen,FR,44.2049,0.6212,True
['Ecovelo'],/v2/networks/semo,semo,semo,Communauté d'agglomération Seine-Eure,FR,49.22,1.17,False
['Ecovelo'],/v2/networks/cyclovis,cyclovis,Cyclovis,Soissons,FR,49.3817,3.3236,True
['Ecovelo'],/v2/networks/chantrerie-captainbike,chantrerie-captainbike,Chantrerie VLS (Captain Bike),"La Chantrerie, Nantes",FR,47.2868203,-1.5210917,True
['Ecovelo'],/v2/networks/saclay-captainbike,saclay-captainbike,Saclay VLS (Captain Bike),Paris-Saclay,FR,48.7098082,2.211366,True
['CIGL ESCH'],/v2/networks/velok,velok,Vël'Ok,Esch-sur-alzette,LU,49.5024,5.9722,True
['Nextbike GmbH'],/v2/networks/wienmobil-rad,wienmobil-rad,WienMobil Rad,Wien,AT,48.2081743,16.3738189,False
,/v2/networks/bikeverona,bikeverona,Verona Bike,Verona,IT,45.438611,10.992778,False
['Donkey Republic'],/v2/networks/sprottenflotte-kiel,sprottenflotte-kiel,Sprottenflotte,Kiel,DE,54.2837,10.13213,False
"['TaM', 'Smoove']",/v2/networks/velomagg,velomagg,Vélomagg,Montpellier,FR,43.6119,3.8772,False
"['Bcycle, LLC', 'RTC Southern Nevada, Inc']",/v2/networks/rtc-bike-share,rtc-bike-share,RTC Bike Share,"Las Vegas, NV",US,36.1438,-115.15682,False
"['Bcycle, LLC', 'Embark, Inc']",/v2/networks/spokies,spokies,Spokies BCycle,"Oklahoma, OK",US,35.46436,-97.50888,False
['Leonbici Nextbike Gmbh Y Autobuses Urbanos De Leon S.a. Ute'],/v2/networks/alsa-nextbike-leon,alsa-nextbike-leon,Alsa nextbike León,León,ES,42.5987263,-5.5670959,False
['Strasbourg Mobilités'],/v2/networks/velhop,velhop,Vélhop,Strasbourg,FR,48.583611,7.748056,False
,/v2/networks/optymo,optymo,Optymo,Belfort,FR,47.641111,6.849444,False
['Nextbike GmbH'],/v2/networks/nextbike-prostejov,nextbike-prostejov,nextbike Prostejov,Prostejov,CZ,49.4722,17.1055,False
['Nextbike GmbH'],/v2/networks/nextbike-focsani,nextbike-focsani,nextbike Romania,Focșani,RO,45.6947,27.1851,False
['Nextbike GmbH'],/v2/networks/grad-vukovar,grad-vukovar,Grad Vukovar (Croatia),Vukovar,HR,45.3575,18.9895,False
['Nextbike GmbH'],/v2/networks/grad-zapresic,grad-zapresic,Grad Zaprešić (Croatia),Zaprešić,HR,45.8622,15.8049,False
['Nextbike GmbH'],/v2/networks/santander-brunel,santander-brunel,Santander Cycles - Brunel,Brunel University,GB,51.5463,-0.48048,False
['Nextbike GmbH'],/v2/networks/pobiedziski-rower-gminny-pobiedziska,pobiedziski-rower-gminny-pobiedziska,Pobiedziski Rower Gminny Poland,Pobiedziska,PL,52.4765,17.2866,False
['Nextbike GmbH'],/v2/networks/piotrkowski-rower-miejski-piotrkow-trybunalski,piotrkowski-rower-miejski-piotrkow-trybunalski,Piotrkowski Rower Miejski Poland,Piotrków Trybunalski,PL,51.3975,19.6779,False
['Nextbike GmbH'],/v2/networks/sap-walldorf,sap-walldorf,SAP Walldorf,Walldorf,DE,49.2945,8.62324,False
['Nextbike GmbH'],/v2/networks/opcina-pitomaca,opcina-pitomaca,Općina Pitomača (Croatia),Pitomača,HR,45.9077,17.2622,False
['Nextbike GmbH'],/v2/networks/nomago-ljubljana,nomago-ljubljana,Nomago Bikes - LJUBLJANA,Ljubljana,SI,46.0577,14.5013,False
['Nextbike GmbH'],/v2/networks/system-roweru-gminnego-pielgrzymka,system-roweru-gminnego-pielgrzymka,System Roweru Gminnego Poland,Pielgrzymka,PL,51.1185,15.8153,False
['Nextbike GmbH'],/v2/networks/rvk,rvk,RVK,RVK e-Bike,DE,50.7069,6.87607,False
['Nextbike GmbH'],/v2/networks/wupsi,wupsi,wupsiRad Leverkusen,Leverkusen,DE,51.0732,7.00814,False
['Nextbike GmbH'],/v2/networks/lovesharing-canary-islands-gran-canaria,lovesharing-canary-islands-gran-canaria,Lovesharing (Canary Islands),Gran Canaria,ES,27.8154,-15.5182,False
['Nextbike GmbH'],/v2/networks/lovesharing-canary-islands-lanzarote,lovesharing-canary-islands-lanzarote,Lovesharing (Canary Islands),Lanzarote,ES,29.0491,-13.5729,False
['Nextbike GmbH'],/v2/networks/lovesharing-canary-islands-fuerteventura,lovesharing-canary-islands-fuerteventura,Lovesharing (Canary Islands),Fuerteventura,ES,28.3584,-14.064,False
['VAG Verkehrs-Aktiengesellschaft'],/v2/networks/vagrad,vagrad,VAG_Rad,Nürnberg,DE,49.4487,11.0794,False
['Nextbike GmbH'],/v2/networks/grad-split,grad-split,Grad Split (Croatia),Split,HR,43.5162,16.4637,False
['Nextbike GmbH'],/v2/networks/grad-split-solin,grad-split-solin,Grad Split (Croatia),Solin,HR,43.5441,16.4833,False
['Nextbike GmbH'],/v2/networks/grad-split-opcina-klis,grad-split-opcina-klis,Grad Split (Croatia),Općina Klis,HR,43.5605,16.5269,False
['Nextbike GmbH'],/v2/networks/grad-split-opcina-hrvace,grad-split-opcina-hrvace,Grad Split (Croatia),Općina Hrvace,HR,43.7553,16.6197,False
['Nextbike GmbH'],/v2/networks/grad-split-opcina-otok-dalmatinski,grad-split-opcina-otok-dalmatinski,Grad Split (Croatia),Općina Otok Dalmatinski,HR,43.6889,16.7361,False
['Nextbike GmbH'],/v2/networks/grad-split-sinj,grad-split-sinj,Grad Split (Croatia),Sinj,HR,43.7031,16.6364,False
['Nextbike GmbH'],/v2/networks/grad-split-podstrana,grad-split-podstrana,Grad Split (Croatia),Podstrana,HR,43.4934,16.5598,False
['Nextbike GmbH'],/v2/networks/grad-split-trogir,grad-split-trogir,Grad Split (Croatia),Trogir,HR,43.5234,16.2476,False
['Nextbike GmbH'],/v2/networks/nextbike-ostrava,nextbike-ostrava,nextbike Ostrava,Ostrava,CZ,49.8344,18.2823,False
['Nextbike GmbH'],/v2/networks/nextbike-ostrava-hlucin,nextbike-ostrava-hlucin,nextbike Ostrava,Hlučín,CZ,49.898,18.1923,False
['Nextbike GmbH'],/v2/networks/nextbike-ostrava-vresina,nextbike-ostrava-vresina,nextbike Ostrava,Vřesina,CZ,49.825,18.1206,False
['Nextbike GmbH'],/v2/networks/ibizi-ibiza-city,ibizi-ibiza-city,ibizi,Ibiza-City,ES,38.9066,1.42046,False
['Nextbike GmbH'],/v2/networks/sprintrad,sprintrad,sprintRAD,Hannover,DE,52.3721,9.73569,False
['Nextbike GmbH'],/v2/networks/komornicki-system-rowerowy-komorniki,komornicki-system-rowerowy-komorniki,Komornicki System Rowerowy Poland,Komorniki,PL,52.3347,16.8094,False
['Nextbike GmbH'],/v2/networks/nextbike-havirov,nextbike-havirov,nextbike Havířov,Havířov,CZ,49.7799,18.4328,False
['Nextbike GmbH'],/v2/networks/nextbike-berounsko,nextbike-berounsko,nextbike Berounsko,Berounsko,CZ,49.9616,14.064,False
['Nextbike GmbH'],/v2/networks/ready4green-graben,ready4green-graben,Graben - ready4green,Graben,DE,51.1242,10.8984,False
['Nextbike GmbH'],/v2/networks/oleski-rower-miejski-olesno,oleski-rower-miejski-olesno,Oleski Rower Miejski Poland,Olesno,PL,50.8773,18.4212,False
['Nextbike GmbH'],/v2/networks/styr-staell-goeteborg,styr-staell-goeteborg,"Styr & Ställ (Sweden, Göteborg)",Göteborg,SE,57.6902,11.9881,False
['Nextbike GmbH'],/v2/networks/nibelungen-bike-braunschweig,nibelungen-bike-braunschweig,Nibelungen-Bike,Braunschweig,DE,52.2597,10.5307,False
['Nextbike GmbH'],/v2/networks/nextbike-brno,nextbike-brno,nextbike Brno,Brno,CZ,49.1911,16.6148,False
['Nextbike GmbH'],/v2/networks/nextbike-brno-kurim,nextbike-brno-kurim,nextbike Brno,Kuřim,CZ,49.2994,16.5368,False
['Nextbike GmbH'],/v2/networks/nextbike-praha,nextbike-praha,nextbike Praha,Praha,CZ,50.0592,14.5761,False
['Nextbike GmbH'],/v2/networks/nextbike-praha-ricany,nextbike-praha-ricany,nextbike Praha,Říčany,CZ,49.9976,14.6685,False
['Nextbike GmbH'],/v2/networks/nextbike-olomouc,nextbike-olomouc,nextbike Olomouc,Olomouc,CZ,49.5929,17.2459,False
['Nextbike GmbH'],/v2/networks/nextbike-kladno,nextbike-kladno,nextbike Kladno,Kladno,CZ,50.1435,14.1082,False
['Nextbike GmbH'],/v2/networks/nextbike-opava,nextbike-opava,nextbike Opava,Opava,CZ,49.9289,18.2634,False
['Nextbike GmbH'],/v2/networks/nextbike-bielefeld,nextbike-bielefeld,meinSiggi,Bielefeld,DE,52.0257,8.53286,False
['Nextbike GmbH'],/v2/networks/yoy-san-luis-potosi,yoy-san-luis-potosi,YOY - San Luis Potosi,San Luis Potosi,MX,22.438,-100.514,False
['Nextbike GmbH'],/v2/networks/yoy-san-luis-potosi-cancun,yoy-san-luis-potosi-cancun,YOY - San Luis Potosi,Cancún,MX,21.1675,-86.8498,False
['Nextbike GmbH'],/v2/networks/bergisches-e-bike,bergisches-e-bike,Bergisches e-Bike,Bergisches e-Bike,DE,51.0192,7.18025,False
['Nextbike GmbH'],/v2/networks/nextbike-pardubice,nextbike-pardubice,nextbike Pardubice,Pardubice,CZ,50.0343,15.7812,False
['Nextbike GmbH'],/v2/networks/nextbike-hradec-kralove,nextbike-hradec-kralove,nextbike Hradec Králové,Hradec Králové,CZ,50.2079,15.8334,False
['Nextbike GmbH'],/v2/networks/nextbike-mladoboleslavsko-mlada-boleslav,nextbike-mladoboleslavsko-mlada-boleslav,nextbike Mladoboleslavsko,Mladá Boleslav,CZ,50.4278,14.8999,False
['Nextbike GmbH'],/v2/networks/nextbike-mladoboleslavsko-mnichovo-hradiste,nextbike-mladoboleslavsko-mnichovo-hradiste,nextbike Mladoboleslavsko,Mnichovo Hradiště,CZ,50.5218,14.9741,False
['Nextbike GmbH'],/v2/networks/oeynrad-bad-oeynhausen,oeynrad-bad-oeynhausen,Oeynrad,Bad Oeynhausen,DE,52.2051,8.80074,False
['Nextbike GmbH'],/v2/networks/rsvg-bike,rsvg-bike,RSVG-Bike,RSVG,DE,50.7669,7.37457,False
['Nextbike GmbH'],/v2/networks/citybikelinz,citybikelinz,city bike Linz,Linz,AT,48.3003,14.2843,False
['Nextbike GmbH'],/v2/networks/velopark-drobeta,velopark-drobeta,Drobeta Velopark,Drobeta,RO,44.6326,22.6564,False
['Nextbike GmbH'],/v2/networks/nomago-gorica,nomago-gorica,Nomago Bikes - GO2GO,Nova Gorica,SI,45.9576,13.6406,False
['Nextbike GmbH'],/v2/networks/saturn,saturn,Saturn,Saturn,RO,43.82,28.7445,False
['Nextbike GmbH'],/v2/networks/nextbike-frydek-mistek,nextbike-frydek-mistek,nextbike Frýdek-Místek,Frýdek-Místek,CZ,49.6832,18.3457,False
['Nextbike GmbH'],/v2/networks/nextbike-uherske-hradiste,nextbike-uherske-hradiste,nextbike Uherské Hradiště,Uherské Hradiště,CZ,49.0678,17.4665,False
['Nextbike GmbH'],/v2/networks/nextbike-zlin,nextbike-zlin,nextbike Zlín,Zlín,CZ,49.238,17.6788,False
['Nextbike GmbH'],/v2/networks/nextbike-krnov,nextbike-krnov,nextbike Krnov,Krnov,CZ,50.0703,17.8837,False
['Nextbike GmbH'],/v2/networks/eifel,eifel,Eifel e-Bike,Eifel e-Bike,DE,50.5771,6.64673,False
['Nextbike GmbH'],/v2/networks/nextbike-rychnovsko,nextbike-rychnovsko,nextbike Rychnovsko,Rychnovsko,CZ,50.1668,16.2828,False
['Nextbike GmbH'],/v2/networks/nextbike-pisek,nextbike-pisek,nextbike Písek,Písek,CZ,49.3051,14.1463,False
['Nextbike GmbH'],/v2/networks/nextbike-jihlava,nextbike-jihlava,nextbike Jihlava,Jihlava,CZ,49.4078,15.6061,False
['Nextbike GmbH'],/v2/networks/nomago-zanaprej,nomago-zanaprej,Nomago Bikes - ZANAPREJ,Zagorje ob Savi,SI,46.1392,14.9785,False
['Nextbike GmbH'],/v2/networks/rower-powiatowy-sokolow-podlaski,rower-powiatowy-sokolow-podlaski,Rower Powiatowy Sokołów Podlaski,Sokołów Podlaski,PL,52.4082,22.2525,False
['Nextbike GmbH'],/v2/networks/nextbike-bergamo,nextbike-bergamo,nextbike Bergamo,Bergamo,IT,45.6986,9.67567,False
['Nextbike GmbH'],/v2/networks/emobi-osijek,emobi-osijek,eMobi (Croatia),Osijek,HR,45.554,18.6943,False
['Nextbike GmbH'],/v2/networks/arval-scandicci,arval-scandicci,ARVAL,Scandicci,IT,43.7701,11.1592,False
['Bremer Tageszeitungen AG'],/v2/networks/nextbike-oldenburg,nextbike-oldenburg,OLi-Bike,Oldenburg,DE,53.1448,8.22485,False
['Nextbike GmbH'],/v2/networks/nextbike-urdaibai,nextbike-urdaibai,BBK Klimabizi,Urdaibai,ES,43.395,-2.68815,False
['Nextbike GmbH'],/v2/networks/mvrad-hq,mvrad-hq,MV-Rad,MV-Rad,DE,53.6707,12.4255,False
['Nextbike GmbH'],/v2/networks/mvrad-anklam,mvrad-anklam,MV-Rad,Anklam,DE,53.8614,13.6907,False
['Nextbike GmbH'],/v2/networks/greifswald,greifswald,StadtRad Greifswald,Greifswald (StadtRad),DE,54.0961,13.3787,False
['Nextbike GmbH'],/v2/networks/nextbike-dvur-kralove,nextbike-dvur-kralove,nextbike Dvůr Králové,Dvůr Králové,CZ,50.4278,15.8162,False
['Nextbike GmbH'],/v2/networks/vvtregiorad-kufstein,vvtregiorad-kufstein,VVT REGIORAD Tirol,Kufstein,AT,47.583,12.1692,False
['Nextbike GmbH'],/v2/networks/vvtregiorad-ellmau,vvtregiorad-ellmau,VVT REGIORAD Tirol,Ellmau,AT,47.5134,12.3025,False
['Nextbike GmbH'],/v2/networks/ski-rower-chelm,ski-rower-chelm,Chełmski Rower,Chełm,PL,51.1318,23.4755,False
['Nextbike GmbH'],/v2/networks/nextbike-vrchlabi,nextbike-vrchlabi,nextbike Vrchlabí,Vrchlabí,CZ,50.6222,15.6126,False
['Nextbike GmbH'],/v2/networks/winsenrad,winsenrad,WinsenRad,Winsen (Luhe),DE,53.3547,10.2067,False
['Nextbike GmbH'],/v2/networks/nomago-portoroz,nomago-portoroz,Nomago Bikes - PORTOROZ,Portorož,SI,45.5054,13.5979,False
['Nextbike GmbH'],/v2/networks/vrn-landau,vrn-landau,VRN,Landau in der Pfalz,DE,49.1975,8.11693,False
,/v2/networks/velocity-aachen,velocity-aachen,Velocity,Aachen,DE,50.776667,6.083611,False
,/v2/networks/avelo-quebec,avelo-quebec,àVélo,Québec,CA,46.81305,-71.2168,False
,/v2/networks/acces-velo-saguenay,acces-velo-saguenay,Accès Vélo,Saguenay,CA,48.433333,-71.083333,False
"['Vilvolt CA Épinal', ""Communauté d'agglomération Épinal"", 'Fifteen SAS']",/v2/networks/vilvolt,vilvolt,Vilvolt,Epinal,FR,48.1833,6.4508,False
"['VeloBaie', 'Fifteen SAS']",/v2/networks/velobaie,velobaie,VeloBaie,Saint-Brieuc,FR,48.514,-2.765,False
['Donkey Republic'],/v2/networks/donkey-gh,donkey-gh,Donkey Republic - Gent,Gent,BE,51.05,3.7303,False
['JCDecaux'],/v2/networks/mbajk,mbajk,MBajk,Maribor,SI,46.5547,15.6459,False
['PubliBike AG'],/v2/networks/publibike-zuerich,publibike-zuerich,PubliBike Zürich,Zürich,CH,47.38728,8.53767,False
['PubliBike AG'],/v2/networks/publibike-sierre,publibike-sierre,PubliBike Sierre,Sierre,CH,46.28986,7.53194,False
['PubliBike AG'],/v2/networks/publibike-region-de-nyon,publibike-region-de-nyon,PubliBike Région de Nyon,Nyon,CH,46.381706,6.240311,False
['PubliBike AG'],/v2/networks/publibike-bern,publibike-bern,PubliBike Bern,Bern,CH,46.94841,7.43767,False
['PubliBike AG'],/v2/networks/publibike-sottoceneri-ti,publibike-sottoceneri-ti,PubliBike Sottoceneri (TI),Lugano,CH,46.00491,8.95244,False
['PubliBike AG'],/v2/networks/publibike-fribourg,publibike-fribourg,PubliBike Fribourg,Fribourg,CH,46.805708,7.160339,False
['PubliBike AG'],/v2/networks/publibike-lausanne-morges,publibike-lausanne-morges,PubliBike Lausanne-Morges,Lausanne,CH,46.516649,6.62948,False
['PubliBike AG'],/v2/networks/publibike-sion,publibike-sion,PubliBike Sion,Sion,CH,46.228227,7.358901,False
"['Citybike Normandie', 'INURBA Mobility']",/v2/networks/lovelolibreservice,lovelolibreservice,Lovélo Libre Service,Rouen,FR,49.4432552,1.0999821,False
['The National Transport Authority'],/v2/networks/waterford,waterford,TFI Bikes,Waterford,IE,52.2475049,-7.1130299,False
['Cyclopolis Systems'],/v2/networks/cyclopolis-loutraki,cyclopolis-loutraki,Cyclopolis,Loutraki,GR,37.9782137,22.9767486,False
['Cyclopolis Systems'],/v2/networks/cyclopolis-igoumenitsa,cyclopolis-igoumenitsa,Cyclopolis,Igoumenitsa,GR,39.5031199,20.2639271,False
['Cyclopolis Systems'],/v2/networks/cyclopolis-edessa,cyclopolis-edessa,Cyclopolis,Edessa,GR,40.8033168,22.0436732,False
['Cyclopolis Systems'],/v2/networks/cyclopolis-syros,cyclopolis-syros,Cyclopolis,Syros,GR,37.443861,24.9393979,False
['Cyclopolis Systems'],/v2/networks/cyclopolis-chania,cyclopolis-chania,Cyclopolis,Chania,GR,35.5148425,24.0177549,False
['Bike U Sp. z o.o.'],/v2/networks/torvelo,torvelo,Torvelo,Toruń,PL,53.0138,18.5984,False
"['Citybike España S.L.U.', 'Fifteen SAS']",/v2/networks/gijon,gijon,Gijón Bici,Gijón,ES,43.5396116,-5.6663604,False
['Fifteen SAS'],/v2/networks/auxrmlevelo,auxrmlevelo,AuxR_M le vélo,Auxerre,FR,47.797221,3.572376,False
['Bicincitta Italia S.r.l.'],/v2/networks/zena-by-bike,zena-by-bike,Zena By Bike,Genova,IT,44.40430089372731,8.92908986230462,False
"['Nextbike GmbH', 'TIER Mobility SE', 'Transports Metropolitans de Barcelona', 'Projectes i Serveis de Mobilitat S.A']",/v2/networks/ambici-badalona,ambici-badalona,Ambici,Badalona,ES,41.447,2.245,False
"['Nextbike GmbH', 'TIER Mobility SE', 'Transports Metropolitans de Barcelona', 'Projectes i Serveis de Mobilitat S.A']",/v2/networks/ambici-cornella-de-llobregat,ambici-cornella-de-llobregat,Ambici,Cornellà de Llobregat,ES,41.3585,2.07081,False
"['Nextbike GmbH', 'TIER Mobility SE', 'Transports Metropolitans de Barcelona', 'Projectes i Serveis de Mobilitat S.A']",/v2/networks/ambici-santa-coloma-de-gramenet,ambici-santa-coloma-de-gramenet,Ambici,Santa Coloma de Gramenet,ES,41.4459,2.21033,False
"['Nextbike GmbH', 'TIER Mobility SE', 'Transports Metropolitans de Barcelona', 'Projectes i Serveis de Mobilitat S.A']",/v2/networks/ambici-el-prat-de-llobregat,ambici-el-prat-de-llobregat,Ambici,El Prat de Llobregat,ES,41.3239,2.09317,False
"['Nextbike GmbH', 'TIER Mobility SE', 'Transports Metropolitans de Barcelona', 'Projectes i Serveis de Mobilitat S.A']",/v2/networks/ambici-castelldefels,ambici-castelldefels,Ambici,Castelldefels,ES,41.2816,1.97678,False
"['Nextbike GmbH', 'TIER Mobility SE', 'Transports Metropolitans de Barcelona', 'Projectes i Serveis de Mobilitat S.A']",/v2/networks/ambici-viladecans,ambici-viladecans,Ambici,Viladecans,ES,41.3165,2.01306,False
"['Nextbike GmbH', 'TIER Mobility SE', 'Transports Metropolitans de Barcelona', 'Projectes i Serveis de Mobilitat S.A']",/v2/networks/ambici-gava,ambici-gava,Ambici,Gavà,ES,41.303,2.00269,False
"['Nextbike GmbH', 'TIER Mobility SE', 'Transports Metropolitans de Barcelona', 'Projectes i Serveis de Mobilitat S.A']",/v2/networks/ambici-esplugues-de-llobregat,ambici-esplugues-de-llobregat,Ambici,Esplugues de Llobregat,ES,41.3771,2.08938,False
"['Nextbike GmbH', 'TIER Mobility SE', 'Transports Metropolitans de Barcelona', 'Projectes i Serveis de Mobilitat S.A']",/v2/networks/ambici-sant-joan-despi,ambici-sant-joan-despi,Ambici,Sant Joan Despí,ES,41.368,2.05635,False
"['Nextbike GmbH', 'TIER Mobility SE', 'Transports Metropolitans de Barcelona', 'Projectes i Serveis de Mobilitat S.A']",/v2/networks/ambici-molins-de-rei,ambici-molins-de-rei,Ambici,Molins de Rei,ES,41.4132,2.02037,False
"['Nextbike GmbH', 'TIER Mobility SE', 'Transports Metropolitans de Barcelona', 'Projectes i Serveis de Mobilitat S.A']",/v2/networks/ambici-sant-just-desvern,ambici-sant-just-desvern,Ambici,Sant Just Desvern,ES,41.3807,2.07496,False
"['Nextbike GmbH', 'TIER Mobility SE', 'Transports Metropolitans de Barcelona', 'Projectes i Serveis de Mobilitat S.A']",/v2/networks/ambici-sant-boi-de-llobregat,ambici-sant-boi-de-llobregat,Ambici,Sant Boi de Llobregat,ES,41.3458,2.03404,False
['Heraeus Holding GmbH'],/v2/networks/heraeus-hanau,heraeus-hanau,Heraeus Hanau,Hanau,DE,50.1387,8.94429,False
['Nextbike GmbH'],/v2/networks/stari-grad-hvar,stari-grad-hvar,Hvar,Stari Grad,HR,43.1841,16.5886,False
['Rhein-Erft-Verkehrsgesellschaft mbH'],/v2/networks/revgmobic,revgmobic,mobic,REVG,DE,50.8493,6.6687,False
['Nextbike GmbH'],/v2/networks/westbike-erkelenz,westbike-erkelenz,westBike,Erkelenz,DE,51.0753,6.31233,False
['Nextbike GmbH'],/v2/networks/westbike-geilenkirchen,westbike-geilenkirchen,westBike,Geilenkirchen,DE,50.9671,6.11886,False
['Nextbike GmbH'],/v2/networks/westbike-heinsberg,westbike-heinsberg,westBike,Heinsberg,DE,51.0597,6.11849,False
['Nextbike GmbH'],/v2/networks/westbike-hueckelhoven,westbike-hueckelhoven,westBike,Hückelhoven,DE,51.0529,6.21933,False
['Nextbike GmbH'],/v2/networks/westbike-wegberg,westbike-wegberg,westBike,Wegberg,DE,51.1427,6.2813,False
['Nextbike GmbH'],/v2/networks/edeka-gruenheide-mark,edeka-gruenheide-mark,EDEKA Grünheide,Grünheide (Mark),DE,52.4247,13.8203,False
['Nextbike GmbH'],/v2/networks/nextbike-erlangen,nextbike-erlangen,nextbike Erlangen,Erlangen,DE,49.589,11.0065,False
['Nextbike GmbH'],/v2/networks/nomago-gorizia,nomago-gorizia,GO2GO - Gorizia,Gorizia,IT,45.9469,13.6208,False
['Mainzer Verkehrsgesellschaft mbH'],/v2/networks/mvg-meinrad-nextbike-mainz,mvg-meinrad-nextbike-mainz,meinRad MVG Mainz,Mainz,DE,45.9469,13.6208,False
['Nextbike GmbH'],/v2/networks/veturilo-nextbike-warsaw,veturilo-nextbike-warsaw,VETURILO 3.0,Warsaw,PL,52.2581,20.9949,False
['Cykleo SAS'],/v2/networks/divia-velodi,divia-velodi,DiviaVélodi,Dijon,FR,47.3215806,5.0414701,False
['Cykleo SAS'],/v2/networks/twisto-velo,twisto-velo,Twisto vélo,Caen,FR,49.1813403,-0.3635615,False
['Cykleo SAS'],/v2/networks/veloplus-velotao,veloplus-velotao,Vélo+/VéloTAO,Orléans,FR,47.9027336,1.9086066,False
['Cykleo SAS'],/v2/networks/velitul,velitul,Vélitul,Laval,FR,48.0706687,-0.7734022,False
['DecoBike LLC'],/v2/networks/citi-bike-miami,citi-bike-miami,Citi Bike Miami,"Miami, FL",US,25.790654,-80.1300455,False
['Comunicare S.r.l.'],/v2/networks/bicincitta-costa-blu,bicincitta-costa-blu,Costa Blu,Montesilvano,IT,42.5009,14.1282,False
['Comunicare S.r.l.'],/v2/networks/bicincitta-pista,bicincitta-pista,PisTA!,Taranto,IT,40.4351,17.2096,False
['Comunicare S.r.l.'],/v2/networks/bicincitta-monteriggioni,bicincitta-monteriggioni,Sipedala,Monteriggioni,IT,43.3896,11.2236,False
['Comunicare S.r.l.'],/v2/networks/bicincitta-massa,bicincitta-massa,Bici in Massa,Massa,IT,44.0146,10.1017,False
['Instituto Tecnológico de Castilla y León (ITCL)'],/v2/networks/bikenmedio,bikenmedio,BikEnmedio,Campoo de Enmedio,ES,42.9995,-4.1393,False
['Instituto Tecnológico de Castilla y León (ITCL)'],/v2/networks/biciarousa,biciarousa,BiciArousa,A Illa de Arousa,ES,42.5521,-8.8666,False
['Instituto Tecnológico de Castilla y León (ITCL)'],/v2/networks/bealler,bealler,Pedaleando por Aller (BeALLER),Aller,ES,43.1482,-5.6295,False
['Instituto Tecnológico de Castilla y León (ITCL)'],/v2/networks/albabici,albabici,AlbaBici,Albacete,ES,38.9943,-1.8602,False
['Instituto Tecnológico de Castilla y León (ITCL)'],/v2/networks/bicialcazar,bicialcazar,BiciAlcázar,Alcázar de San Juan,ES,39.3901,-3.2101,False
['Instituto Tecnológico de Castilla y León (ITCL)'],/v2/networks/tallinja-bike,tallinja-bike,Tallinja Bike,Valletta - Malta - Gozo,MT,35.8992,14.5141,False
"['PBSC Urban Solutions', 'Shift Transit']",/v2/networks/tugo-bike-share,tugo-bike-share,Tugo Bike Share,"Tucson, AZ",US,32.2225,-110.9749,False
['Nextbike GmbH'],/v2/networks/nextbike-prerov,nextbike-prerov,nextbike Prerov,Prerov,CZ,49.4574,17.4408,False
